id,name,description,address,locales,website,phone,lat,long,photo,new,secondhand,charity,open,checked,rgl,twitter,elweguardian,leytonstoner,londonist,cgc,londonbooks,tol,bookdealer,reading_matters,blog,topfloorflat,thebookguide,harringayonline,rttimes,bluestocking,bookseller,hornseyroad,hackneycitizen,peckhampeculiar,yelp,deptforddame,getwestlondon,dalemcgowan,dg,londonse1,greenwichphantom,londonstuff,hamhigh,andrewwhitehead,timeout,guardian,robaroundbooks,flickr,bibliophilicblogger,inews,spitalfieldslife,foodiefoodie,secentral,kenningtonrunoff,ft,foodiebugle,lauraashley,pandorian,tiredoflondon,bookloverslondon,abebooks,ianvisits,brockleycentral
30th-century-comics,30th Century Comics,Vintage comic and book shop.,"18 Lower Richmond Road, Putney, SW15 1JP","Putney, SW15",http://30thcenturycomics.co.uk/,020 8788 2052,51.467219,-0.21823445,https://www.flickr.com/photos/kake_pugh/34432259805/,unknown,true,false,true,May 2017,,,,,,,,,,,,,,,,,,,,,,,,,,,,,,,,,,,,,,,,,,,,,,,,,
56a-infoshop,56a Infoshop,,"56 Crampton Street, SE17 3AE","Elephant and Castle, Walworth, SE17",,,51.490349,-0.100036,,unknown,unknown,false,true,July 2008,"https://london.randomness.org.uk/wiki.cgi?56a_Infoshop,_SE17_3AE",,,,,,,,,,,,,,,,,,,,,,,,,,,,,,,,,,,,,,,,,,,,,,,,
alice-through-the-looking-glass-cecil-court,Alice Through The Looking Glass,"First editions and rare illustrated editions relating to Lewis Carroll's Alice.  Located on <a href=""http://cecilcourt.co.uk/"">Cecil Court</a>, a small lane running between Charing Cross Road and St Martin's Lane with several other specialist/rare/antiquarian bookshops.","14 Cecil Court, Covent Garden, WC2N 4HE",,http://alicelooking.co.uk/,020 7836 8854,51.510747,-0.127826,https://www.flickr.com/photos/kake_pugh/30519769222/,,,,true,October 2016,,,,,,,,,,,,,,,,,,,,,,,,,,,,,,,,,,,,,,,,,,,,,,,,,
alligators-mouth-richmond,The Alligator's Mouth,"Children's bookshop opened by former staff from the now-closed <a href=""lion-and-unicorn-bookshop.html"">Lion & Unicorn</a>.","2a Church Court, Richmond, TW9 1JL",,http://www.thealligatorsmouth.co.uk/,020 8948 6775,51.460545,-0.3040866,https://www.flickr.com/photos/kake_pugh/33814046704/,,,,true,May 2017,,AlligatorsMouth,,,,,,,,,,,,,,,,,,,,,,,,,,,,,,,,,,,,,,,,,,,,,,,
all-you-read-is-love-leytonstone,All You Read Is Love,"Bookshop, cafe, and bar.  Originally a pop-up, now permanent.","877 Leytonstone High Road, E11 1HR","E11, Leytonstone",http://www.allyoureadislove.com/,,51.570393,0.014117271,,unknown,unknown,false,true,,,AllYouReadLove,http://www.guardian-series.co.uk/news/11711953.Danish_siblings_bring_Scandinavian_book_cafe_to_Leytonstone/,http://www.leytonstoner.london/2015/02/23/read-love-really/,,,,,,,,,,,,,,,,,,,,,,,,,,,,,,,,,,,,,,,,,,,,,
alpha-book-company-romford,Alpha Book Company,Cheap second-hand and reissued adults' and children's books.,"Romford Shopping Hall, 43 Market Place, Romford, RM1 3AB","RM1, Romford",,,51.579856,0.18220863,https://www.flickr.com/photos/kake_pugh/37425360562/,true,true,false,true,September 2017,,,,,,,,,,,,,,,,,,,,,,,,,,,,,,,,,,,,,,,,,,,,,,,,,
al-saqi-books-westbourne-grove,Al Saqi Books,They claim on their website to be the UK's largest Middle Eastern bookseller.,"26 Westbourne Grove, W2 5RH","Bayswater, W2, Westbourne Green, Westbourne Grove",http://www.alsaqibookshop.com/,,51.515648,-0.190136,https://www.flickr.com/photos/kake_pugh/9892381683/,unknown,unknown,false,true,September 2013,,,,,http://londonist.com/2009/06/biblio-text_al_saqi_bookshop.php,,,,,,,,,,,,,,,,,,,,,,,,,,,,,,,,,,,,,,,,,,,,
animal-aid-highbury,Animal Aid & Advice,Charity bookshop.,"203 Blackstock Road, N5 9LL",,,,51.560064,-0.09847,https://www.flickr.com/photos/kake_pugh/9335713442/,unknown,true,true,true,July 2013,,,,,,,,,,,,,,,,,,,,,,,,,,,,,,,,,,,,,,,,,,,,,,,,,
any-amount-of-books,Any Amount of Books,,56 Charing Cross Road,,http://www.anyamountofbooks.com/,,51.512268,-0.128467,https://www.flickr.com/photos/ruudboy/1269876498/,false,true,false,true,April 2008,https://london.randomness.org.uk/wiki.cgi?Any_Amount_Of_Books,,,,,,,,,,,,,,,,,,,,,,,,,,,,,,,,,,,,,,,,,,,,,,,,
a-place-in-space-croydon,A Place In Space,"Comics and graphic novels.  It was previously across the road at number 101 (<a href=""http://www.flickr.com/photos/kake_pugh/6883401397/"">photo</a>), but moved to number 96 around 2012-2013.","96 Church Street, CR0 1RD",,http://stores.ebay.co.uk/A-PLACE-IN-SPACE,,51.373889,-0.104669,https://www.flickr.com/photos/kake_pugh/8479158457/,true,unknown,false,true,May 2016,,,,,,"http://croydon.randomness.org.uk/wiki.cgi?A_Place_In_Space,_101_Church_Street",,,,,,,,,,,,,,,,,,,,,,,,,,,,,,,,,,,,,,,,,,,
archive-bookstore,Archive Bookstore,Secondhand books and sheet music.,"83 Bell Street, NW1 6TB",,http://www.archivebookstore.co.uk/,,51.521667,-0.167102,https://www.flickr.com/photos/kake_pugh/3685228953/,false,true,false,true,November 2012,,,,,,,,,,,,,,,,,,,,,,,,,,,,,,,,,,,,,,,,,,,,,,,,,
arthur-probsthain,Arthur Probsthain,Asian and African books.,"41 Great Russell Street, WC1B 3PE",,https://www.teaandtattle.com/bookshop,,51.517921,-0.126815,https://www.flickr.com/photos/kake_pugh/45135847061/,unknown,unknown,false,true,October 2018,,,,,,,,,,,,,,,,,,,,,,,,,,,,,,,,,,,,,,,,,,,,,,,,,
artwords,Artwords,,"69 Rivington Street, EC2A 3QQ",,http://www.artwords.co.uk/aboutus/,,51.526207,-0.080917,https://www.flickr.com/photos/kake_pugh/28124749104/,unknown,unknown,false,true,July 2016,,,,,http://londonist.com/2009/09/biblio-text_artwords.php,,,,,,,,,,,,,,,,,,,,,,,,,,,,,,,,,,,,,,,,,,,,
atlantis-bookshop,Atlantis Bookshop,Allegedly London's oldest independent occult booksellers.,"49a Museum Street, WC1A 1LY",,http://www.theatlantisbookshop.com/,,51.517597,-0.125227,https://www.flickr.com/photos/rjw1/8512079743/,unknown,unknown,false,true,February 2013,,,,,http://londonist.com/2009/07/biblio-text_atlantis_bookshop.php,,http://londonbooks.tumblr.com/post/126816086946/,,,,,,,,,,,,,,,,,,,,,,,,,,,,,,,,,,,,,,,,,,
bookshop-at-chelsea-harbour-design-centre,The Bookshop At,Lifestyle and design books.,"Chelsea Harbour Design Centre, Harbour Road, Fulham, SW10 0XE",,http://www.thebookshopat.com/,,51.476402,-0.18341133,,,,,true,,,,,,,,http://londonbooks.tumblr.com/post/152805543532/,,,,,,,,,,,,,,,,,,,,,,,,,,,,,,,,,,,,,,,,,,
jos-bookshop-chingford,Jo's Bookshop,"Previously known as The Bargain Bookshop and The Bookshop North Chingford.  It has a good selection of children's books, plus non-fiction, general fiction, cards, and crystals.","135 Station Road, E4 6AG",,https://www.hive.co.uk/Shops/Chingford-Bookshop-London,020 8524 9002,51.63279,0.008497,https://www.flickr.com/photos/kake_pugh/37105987665/,unknown,unknown,false,true,September 2017,,ChingfordBooks,,,,,http://londonbooks.tumblr.com/post/144392525806/,,,,,,,,,,,,,,,,,,,,,,,,,,,,,,,,,,,,,,,,,,
barnards-bookshop-uxbridge,Barnard's Bookshop,,"50 Windsor Street, Uxbridge, UB8 1AB",,,,51.545675,-0.4800788,https://www.flickr.com/photos/kake_pugh/38600397081/,unknown,unknown,false,true,November 2017,,,,,,,http://londonbooks.tumblr.com/post/151875367111/barnards-bookshop-ub8-at-the-end-of-the,,,,,,,,,,,,,,,,,,,,,,,,,,,,,,,,,,,,,,,,,,
barnes-bookshop,Barnes Bookshop,"Run by the same people as the <a href=""http://londonbookshops.org/shops/kew-bookshop.html"">Kew Bookshop</a> and the <a href=""http://londonbookshops.org/shops/sheen-bookshop.html"">Sheen Bookshop</a>.","60 Church Road, SW13 0DQ",,,020 8741 0786,51.474792,-0.240583,https://flickr.com/photos/kake_pugh/2977997334/,unknown,unknown,false,true,July 2013,,,,,,,http://londonbooks.tumblr.com/post/138402270125/,http://www.tiredoflondontiredoflife.com/2014/10/buy-books-at-barnes-bookshop.html,,,,,,,,,,,,,,,,,,,,,,,,,,,,,,,,,,,,,,,,,
beaumont-travel-books,Beaumont Travel Books,,"33 Couthurst Road, SE3 8TN",,http://www.abebooks.com/beaumont-travel-books-aba-ilab-london/10321/sf,,51.478619,0.026414,,unknown,unknown,false,true,,,,,,,,,,http://www.sheila-markham.com/interviews/gabriel-beaumont.html,,,,,,,,,,,,,,,,,,,,,,,,,,,,,,,,,,,,,,,,
beckenham-bookshop,Beckenham Bookshop,,"42 High Street, BR3 1AY",,http://www.beckenhambooks.com/,020 8650 9744,51.409573,-0.02532,https://www.flickr.com/photos/kake_pugh/6318029673/,true,unknown,false,true,February 2020,,beckenhambooks,,,,,http://londonbooks.tumblr.com/post/142943802761/beckenham-bookshop-br3-here-we-have-a-marvellous,,,,,,,,,,,,,,,,,,,,,,,,,,,,,,,,,,,,,,,,,,
belgravia-books,Belgravia Books,,"59 Ebury Street, SW1W 0NZ",,http://www.belgraviabooks.com/,,51.495122,-0.147989,,true,false,false,true,February 2012,,BelgraviaB,,,,,http://londonbooks.tumblr.com/post/127932057861/,,,http://web.archive.org/web/20120711022026/http://kimbofo.typepad.com/readingmatters/2012/02/a-visit-to-belgravia-books-london.html,,,,,,,,,,,,,,,,,,,,,,,,,,,,,,,,,,,,,,,
bernard-quaritch-mayfair,Bernard Quaritch,,"40 South Audley Street, Mayfair, W1K 2PR",,http://www.quaritch.com/,020 7297 4888,51.509884,-0.15181799,,false,true,,true,,,,,,,,,,,,,,,,,,,,,,,,,,,,,,,,,,,,,,,,,,,,,,,,,,
bertram-rota,Bertram Rota,"Previously in Covent Garden, it closed its London premises in 2013 and moved all its operations to Kintbury in Berkshire.  Modern first editions, architecture and the applied arts, private press books.","31 Long Acre, Covent Garden, WC2E 9LT",,http://www.bertramrota.co.uk/,,51.512634,-0.12498,,unknown,unknown,false,false,,,,,,,,,,,,,,,,,,,,,,,,,,,,,,,,,,,,,,,,,,,,,,,,,,
big-green-bookshop,Big Green Bookshop,,"Unit 1, Brampton Park Road, Wood Green, N22 6BG",,http://www.biggreenbookshop.com/,020 8881 6767,51.592432,-0.10657851,https://flickr.com/photos/kake_pugh/2570192318/,true,unknown,false,true,December 2012,https://london.randomness.org.uk/wiki.cgi?Big_Green_Bookshop,BigGreenBooks,,,,,,,,,http://woodgreenbookshop.blogspot.com/,,,,,,,,,,,,,,,,,,,,,,,,,,,,,,,,,,,,,,
black-gull-books-camden,Black Gull Books (Camden),,"70-71 Camden Lock Place, Camden Lock Market, NW1 8AF",,,,51.541279,-0.146556,https://www.flickr.com/photos/kake_pugh/48676221801/,unknown,unknown,false,true,September 2019,,,,,,,http://londonbooks.tumblr.com/post/109142890441/black-gull-books-nw1-fight-through-the-crowds,,,,,,,,,,,,,,,,,,,,,,,,,,,,,,,,,,,,,,,,,,
black-gull-books-east-finchley,Black Gull Books (East Finchley),,"121 High Road, N2 8AG",,,,51.590736,-0.164945,https://www.flickr.com/photos/kake_pugh/9458010537/,false,true,false,true,August 2013,"https://london.randomness.org.uk/wiki.cgi?Black_Gull_Books,_N2_8AG",,,,,,,,,,,,,,,,,,,,,,,,,,,,,,,,,,,,,,,,,,,,,,,,
blackwells-holborn,Blackwell's (Holborn),"Previously at 100 Charing Cross Road, but <a href=""https://www.thebookseller.com/news/look-inside-new-blackwells-holborn"">relocated to Holborn</a> in 2014/2015.","50 High Holborn, WC1V 6EP",,https://blackwells.co.uk/,020 7292 5100,51.51825,-0.11488263,https://www.flickr.com/photos/kake_pugh/44223965235/,unknown,unknown,false,true,October 2018,,,,,,,,,,,,,,,,,,,,,,,,,,,,,,,,,,,,,,,,,,,,,,,,,
blackwells-wellcome,Blackwell's at the Wellcome Collection,,"183 Euston Road, NW1 2BE",,https://blackwells.co.uk/,020 7611 2160,51.526007,-0.13402918,,unknown,unknown,false,true,,,,,,,,,,,,,,,,,,,,,,,,,,,,,,,,,,,,,,,,,,,,,,,,,,
blenheim-books,Blenheim Books (incorporating Garden Books),Closed down by May 2012.,"11 Blenheim Crescent, W11 2EE",,,,51.515694,-0.205275,,unknown,unknown,false,false,,,,,,http://londonist.com/2009/04/biblio-text_blenheim_books,,,,,,,,,,,,,,,,,,,,,,,,,,,,,,,,,,,,,,,,,,,,
bolingbroke-bookshop,Bolingbroke Bookshop,Closed in spring 2013.,"147 Northcote Road, SW11 6QB",,,,51.455383,-0.164559,,unknown,unknown,false,false,,,,,,,,,,,,,,,,,,,,,,,,,,,,,,,,,,,,,,,,,,,,,,,,,,
book-aid-lower-sydenham,Book Aid,Christian charity bookshop selling secular as well as religious second-hand books.,"Bromley House, Kangley Bridge Road, Lower Sydenham, SE26 5AQ",,http://www.book-aid.org/,020 8778 2145,51.421985,-0.035868377,,false,true,true,true,,,BookAidTrust,,,,,,,,,,,,,,,,,,,,,,,,,,,,,,,,,,,,,,,,,,,,,,,
book-and-comic-exchange,Book and Comic Exchange,Closed down by April 2017.,"14 Pembridge Road, W11 3HL",,,,51.509609,-0.197024,https://www.flickr.com/photos/kake_pugh/9892234965/,unknown,unknown,false,false,September 2013,,,,,,,http://londonbooks.tumblr.com/post/139716563601/,,,,,http://www.thetopfloorflat.com/2009/03/book-and-comic-exchange-in-notting-hill/,,,,,,,,,,,,,,,,,,,,,,,,,,,,,,,,,,,,,
book-and-kitchen-notting-hill,Book and Kitchen,"Bookshop, cafe, and art gallery.","31 All Saints Road, Notting Hill, W11 1HE",,http://www.bookandkitchen.com/,020 3417 8266,51.518492,-0.20431647,,true,true,false,true,,,BookandKitchen,,,,,,,,,,,,,,,,,,,,,,,,,,,,,,,,,,,,,,,,,,,,,,,
book-and-record-bar-west-norwood,The Book and Record Bar,,"20 Norwood High Street, West Norwood, SE27 9NR",,,020 8670 9568,51.430623,-0.10207643,https://www.flickr.com/photos/kake_pugh/47971742412/,unknown,unknown,false,true,,,BooknRecordBar,,,,,,,,,,,,,,,,,,,,,,,,,,,,,,,,,,,,,,,,,,,,,,,
bookartbookshop,Bookartbookshop,,"17 Pitfield Street, N1 6HB",,http://www.bookartbookshop.com/,,51.527184,-0.083835,https://www.flickr.com/photos/kake_pugh/28665103991/,unknown,unknown,false,true,,,,,,,,http://londonbooks.tumblr.com/post/153771876566/,,,,,,,,,,,,,,,,,,,,,,,,,,,,,,,,,,,,,,,,,,
book-box,Book Box,Closed down by June 2014.,"53 Chatsworth Road, E5 0LH",,,,51.553326,-0.044889,https://www.flickr.com/photos/55935853@N00/3445053887/,unknown,unknown,false,false,March 2009,,,,,http://londonist.com/2010/10/biblio-text_the_bookbox.php,,,,,,,,,,,,,,,,,,,,,,,,,,,,,,,,,,,,,,,,,,,,
bookcase,Bookcase,,"268 Chiswick High Road, W4 1PD",,,,51.492725,-0.257857,https://www.flickr.com/photos/kake_pugh/2493193263/,unknown,unknown,false,true,July 2013,"https://london.randomness.org.uk/wiki.cgi?Bookcase,_W4_1PD",,,,,,,,,,,,,,,,,,,,,,,,,,,,,,,,,,,,,,,,,,,,,,,,
bookends,Bookends,,"108 Charing Cross Road, WC2H 0JN",,,,51.514393,-0.129583,,unknown,unknown,false,true,,,,,,,,,,,,,,,,,,,,,,,,,,,,,,,,,,,,,,,,,,,,,,,,,,
book-haus,Book Haus,,"70 Cadogan Place, SW1X 9AH",,http://www.hauspublishing.com/,,51.494617,-0.156657,https://www.flickr.com/photos/55935853@N00/3990676509/,unknown,unknown,false,true,August 2009,,,,,,,http://londonbooks.tumblr.com/post/121770865336/,,,,,,,,,,,,,,,,,,,,,,,,,,,,,,,,,,,,,,,,,,
bookmarks,Bookmarks,,"1 Bloomsbury Street, WC1B 3QE",,http://www.bookmarksbookshop.co.uk/cgi/store/bookmark.cgi,,51.517155,-0.127351,https://www.flickr.com/photos/kake_pugh/45135845251/,unknown,unknown,false,true,October 2018,"https://london.randomness.org.uk/wiki.cgi?Bookmarks,_WC1B_3QE",Bookmarks_books,,,,,,,,,,,http://web.archive.org/web/20170708034058/http://www.inprint.co.uk/thebookguide/shops/multi.php?id=2609,,,,,,,,,,,,,,,,,,,,,,,,,,,,,,,,,,,,
books4less,Books4Less,,"Unit 11, InShops Centre, 35-43 High Street, HA3 7AE",,,,51.594256,-0.33477,,true,true,false,true,,,,,,,,,,,,,,http://web.archive.org/web/20120718200129/http://www.inprint.co.uk/thebookguide/shops/multi.php?id=1509,,,,,,,,,,,,,,,,,,,,,,,,,,,,,,,,,,,,
books-and-bygones,Books and Bygones,May be more of an antique shop?,"52 Hayes Street, BR2 7LD",,,,51.37904,0.01766,,unknown,unknown,false,true,,,,,,,,,,,,,,,,,,,,,,,,,,,,,,,,,,,,,,,,,,,,,,,,,,
books-bought-and-sold,Books Bought and Sold,"Previously a bricks-and-mortar store in East Molesey, it <a href=""http://www.getsurrey.co.uk/business/s/2128018_independent_rare_bookshop_moves_entirely_online"">went online only</a> in early 2013, though they still sell at book fairs, and stock can be viewed by appointment.","68 Walton Road, KT8 0DL",,http://www.booksinstore.co.uk/,,51.399555,-0.353773,https://www.flickr.com/photos/kake_pugh/9704120654/,unknown,unknown,false,false,,,,,,,,,,,,,,,,,,,,,,,,,,,,,,,,,,,,,,,,,,,,,,,,,,
bookseller-crow-on-the-hill,Bookseller Crow On The Hill,Independent family-run bookshop in Crystal Palace.,"50 Westow Street, SE19 3AF",,http://www.booksellercrow.com/,020 8771 8831,51.417435,-0.082054,https://www.flickr.com/photos/kake_pugh/8252068163/,true,false,false,true,December 2012,"https://london.randomness.org.uk/wiki.cgi?Bookseller_Crow_On_The_Hill,_SE19_3AF",booksellercrow,,,http://londonist.com/2009/05/biblio-text_bookseller_crow_on_the_1.php,,,,,,http://booksellercrow.typepad.com/the_bedside_crow/,,,,,,,,,,,,,,,,,,,,,,,,,,,,,,,,,,,,,,
books-for-amnesty,Books For Amnesty,"Secondhand bookshop with profits going to Amnesty International.  Previously at 139b King Street (<a href=""http://www.flickr.com/photos/kake_pugh/3649058402/"">photo</a>); moved to 181 King Street in 2015.","181 King Street, W6 9JT",,https://www.amnesty.org.uk/amnesty-bookshop-hammersmith,020 8222 8158,51.49263,-0.233447,https://www.flickr.com/photos/kake_pugh/24888632979/,unknown,true,true,true,February 2016,"https://london.randomness.org.uk/wiki.cgi?Books_For_Amnesty,_W6_9JT",,,,,,,,,,,,,,,,,,,,,,,,,,,,,,,,,,,,,,,,,,,,,,,,
books-for-children-hornsey,Books For Children,,"77 Tottenham Lane, Hornsey, N8 9BE",,,07918 806055,51.583983,-0.11614327,,,,,true,,,,,,,,,,,,,,,http://www.harringayonline.com/forum/topics/great-children-s-book-shop,,,,,,,,,,,,,,,,,,,,,,,,,,,,,,,,,,,
books-for-cooks,Books For Cooks,,"4 Blenheim Crescent, W11 1NN",,http://www.booksforcooks.com/,,51.515827,-0.20565,,unknown,unknown,false,true,,"https://london.randomness.org.uk/wiki.cgi?Books_For_Cooks,_W11_1NN",,,,,,,,,,,,,,,,,,,,,,,,,,,,,,,,,,,,,,,,,,,,,,,,
bookshop-loughton,The Book Shop (Loughton),,"150 High Road, IG10 4BE",,,,51.645866,0.053172,https://www.flickr.com/photos/kake_pugh/9442525157/,unknown,unknown,false,true,,,,,,,,,,,,,,,,,,,,,,,,,,,,,,,,,,,,,,,,,,,,,,,,,,
bookshop-hampton,The Book Shop (Hampton),,"Hampton Railway Station, Ashley Road, TW12 2HU",,,,51.416004,-0.372033,,unknown,unknown,false,true,,,,,,,,,,,,,,,,http://www.richmondandtwickenhamtimes.co.uk/news/868906.struggling_to_keep_up_the_good_work/,,,,,,,,,,,,,,,,,,,,,,,,,,,,,,,,,,
bookshop-hackney,The Book Shop (Hackney),"<a href=""http://www.hackneycitizen.co.uk/"">Hackney Citizen</a> says it's a second-hand bookshop with an emphasis on black and children's literature.","58 Clarence Road, E5 8HB",,,,51.550953,-0.055382,,false,true,false,true,,,,,,,,,,,,,,,,,,,,,,,,,,,,,,,,,,,,,,,,,,,,,,,,,,
bookshop-on-the-heath,Bookshop on the Heath,,"74 Tranquil Vale, SE3 0BW",,http://www.bookshopontheheath.co.uk/,,51.466827,0.007274,https://www.flickr.com/photos/kake_pugh/5694008238/,false,true,false,true,May 2011,https://london.randomness.org.uk/wiki.cgi?Bookshop_On_The_Heath,,,,,,,,,,,,,,,,,,,,,,,,,,,,,,,,,,,,,,,,,,,,,,,,
books-ink,Books Ink,"No longer open.  As of August 2013 the premises are occupied by a branch of Albemarle Bond (<a href=""http://www.flickr.com/photos/kake_pugh/9517315977/"">photo</a>).","134 Walthamstow High Street, E17 7JS",,,,51.58263,-0.029569,,false,true,false,false,,,,,,,,,,,,,,,,,,,,,,,,,,,,,,,,,,,,,,,,,,,,,,,,,,
bookstop,Bookstop,,"375 Upper Richmond Road, SW14 7NX",,,,51.464409,-0.267835,,unknown,unknown,false,true,,,,,,,,,,,,,,,,,,,,,,,,,,,,,,,,,,,,,,,,,,,,,,,,,,
book-warehouse-camden-town,Book Warehouse (Camden Town),,"155 Camden High Street, NW1 7JY",,http://www.thebookwarehouse.co.uk/,020 7482 4375,51.538113,-0.1421084,https://www.flickr.com/photos/kake_pugh/21174860282/,true,false,false,true,September 2015,,,,,,,,,,,,,,,,,,,,,,,,,,,,,,,,,,,,,,,,,,,,,,,,,
book-warehouse-holborn,Book Warehouse (Holborn),,"120 Southampton Row, WC1B 5AB",,http://www.thebookwarehouse.co.uk/,,51.520667,-0.12290606,https://www.flickr.com/photos/kake_pugh/14016457691/,true,false,false,true,April 2014,,,,,,,,,,,,,,,,,,,,,,,,,,,,,,,,,,,,,,,,,,,,,,,,,
book-warehouse-islington,Book Warehouse (Islington),,"28 Upper Street, Islington, N1 0PN",,http://www.thebookwarehouse.co.uk/,,51.534484,-0.10530312,https://www.flickr.com/photos/kake_pugh/26472508031/,true,false,false,true,April 2016,,,,,,,,,,,,,,,,,,,,,,,,,,,,,,,,,,,,,,,,,,,,,,,,,
book-warehouse-notting-hill,Book Warehouse (Notting Hill),,"72-74 Notting Hill Gate, W11 3HT",,http://www.thebookwarehouse.co.uk/,020 7727 4149,51.509227,-0.1962001,https://www.flickr.com/photos/kake_pugh/16557892399/,true,false,false,true,March 2015,,,,,,,,,,,,,,,,,,,,,,,,,,,,,,,,,,,,,,,,,,,,,,,,,
book-warehouse-waterloo,Book Warehouse (Waterloo),"Previously at 158 Waterloo Road (<a href=""http://flickr.com/photos/kake_pugh/2669855002/"">photo</a>), but moved to Lower Marsh in early 2015 due to redevelopment of the old site.  Closed down in Autumn 2017.","104 Lower Marsh, SE1 7AB",,http://www.gramex.co.uk/,,51.501193,-0.11216153,https://www.flickr.com/photos/kake_pugh/20562490954/,true,false,false,false,,"https://london.randomness.org.uk/wiki.cgi?Book_Warehouse,_SE1_7AB",,,,,,http://londonbooks.tumblr.com/post/119375423866/,,,,,,,,,,,,,,,,,,,,,,,,,,,,,,,,,,,,,,,,,,
bookworm-carshalton,Bookworm (Carshalton),Closed down some time between September 2012 and January 2015.,"23 West Street, SM5 2PT",,,,51.3666308,-0.16724527,https://www.flickr.com/photos/kake_pugh/7976510658/,false,true,false,false,September 2012,"https://london.randomness.org.uk/wiki.cgi?Bookworm,_SM5_2PT",,,,,,,,,,,,,,,,,,,,,,,,,,,,,,,,,,,,,,,,,,,,,,,,
bookworm-finchley-road,Bookworm (Finchley Road),Children's bookshop.,"1177 Finchley Road, NW11 0AA",,,,51.584315,-0.20001461,,,,,true,,,,,,,,http://londonbooks.tumblr.com/post/148238793811/,,,,,,,,,,,,,,,,,,,,,,,,,,,,,,,,,,,,,,,,,,
british-heart-foundation-streatham,British Heart Foundation Books & Music Shop,,"94 Streatham High Road, SW16 1BS",,https://www.bhf.org.uk/what-we-do/find-bhf-near-you/2014/11/24/21/53/streatham-books-and-music-shop,,51.435162,-0.128531,https://www.flickr.com/photos/kake_pugh/13283821763/,unknown,true,true,true,March 2014,,,,,,,,,,,,,,,,,,,,,,,,,,,,,,,,,,,,,,,,,,,,,,,,,
british-red-cross-palmers-green,British Red Cross Bookshop,,"385 Green Lanes, N13 4JG",,,,51.619297,-0.107503,,unknown,true,true,true,,,,,,,,,,,,,,,,,,,,,,,,,,,,,,,,,,,,,,,,,,,,,,,,,,
brixton-bookmongers,Brixton Bookmongers,,"439 Coldharbour Lane, SW9 8LN",,http://www.bookmongers.com/,,51.461426,-0.113833,https://www.flickr.com/photos/kake_pugh/2809290205/,false,true,false,true,,https://london.randomness.org.uk/wiki.cgi?Brixton_Book_Mongers,,,,,,,,,,,,,,,,,,,,,,,,,,,,,,,,,,,,,,,,,,,,,,,,
broadway-bookshop-hackney,Broadway Bookshop,,"6 Broadway Market, E8 4QJ",,http://www.broadwaybookshophackney.com/,,51.536835,-0.061433,,unknown,unknown,false,true,,,,,,,,http://londonbooks.tumblr.com/post/110436957031/broadway-bookshop-e8-over-east-london-way-a,http://www.tiredoflondontiredoflife.com/2010/07/search-for-paperbacks-at-broadway.html,,,,,,,,,,,,,,,,,,,,,,,,,,,,,,,,,,,,,,,,,
brockley-bookshop-crofton-park,Crofton Books,Vintage bookshop based in Crofton Park Library.,"375 Brockley Road, Crofton Park, SE4 2AG",,,020 7998 8387,51.455444,-0.036611751,,unknown,true,false,true,,,CroftonBooks,,,,,,,,,,,http://web.archive.org/web/20170708041825/http://www.inprint.co.uk/thebookguide/shops/multi.php?id=2607,,,,,,,,,,,,,,,,,,,,,,,,,,,,,,,,,,,,
bryars-and-bryars-cecil-court,Bryars & Bryars,"First editions at a wide range of prices, with a special focus on travel books, literature, and early printing (especially Greek and Latin classics) as well as antique maps and atlases printed c. 1500-1950.  Located on <a href=""http://cecilcourt.co.uk/"">Cecil Court</a>, a small lane running between Charing Cross Road and St Martin's Lane with several other specialist/rare/antiquarian bookshops.","7 Cecil Court, Covent Garden, WC2N 4EZ",,http://bryarsandbryars.co.uk/,020 7836 1910,51.510703,-0.127422,https://www.flickr.com/photos/kake_pugh/30004560154/,unknown,true,false,true,October 2016,,,,,,,http://londonbooks.tumblr.com/post/142170258461/,,,,,,,,,https://www.bluestockingbooks.co.uk/single-post/2019/03/02/Secret-1-The-first-bookshop-uncovered,,,,,,,,,,,,,,,,,,,,,,,,,,,,,,,,,
calder-bookshop-southwark,Calder Bookshop,"Holds regular events, including readings in their back room ""theatre"".","51 The Cut, SE1 8LF",,http://www.calderbookshop.com/,,51.502998,-0.106838,,unknown,unknown,false,true,,,CalderBookshop,,,,,,,,,,,,,,,,,,,,,,,,,,,,,,,,,,,,,,,,,,,,,,,
camden-lock-books-old-street,Camden Lock Books,"<a href=""https://twitter.com/camdenlockbooks/status/1155101981544976384"">Closed down for good</a> in July 2019.","4 St Agnes Well, Old Street Station, EC1Y 1BE",,,,51.525593,-0.087569,https://www.flickr.com/photos/kake_pugh/28710530426/,true,true,false,false,July 2016,,,,,,,,,,,,,http://web.archive.org/web/20120718201326/http://www.inprint.co.uk/thebookguide/shops/multi.php?id=1529,,,,https://www.thebookseller.com/news/camden-lock-books-closes-partly-due-business-rates-pressure-1011181,,,,,,,,,,,,,,,,,,,,,,,,,,,,,,,,
childrens-bookshop-hornsey-road,Children's Bookshop (Hornsey Road),Discount children's bookshop selling books at a pound each - though closed down by June 2014.,"435 Hornsey Road, N19 4DX",,,,51.567264,-0.12229881,,unknown,unknown,false,false,,,,,,,,,,,,,,,,,,,http://thehornseyroad.blogspot.co.uk/2012/06/seven-things-i-found-about-new-bookshop.html,,,,,,,,,,,,,,,,,,,,,,,,,,,,,,,
church-street-bookshop-stoke-newington,Church Street Bookshop,,"142 Stoke Newington Church Street, N16 0JU",,,,51.561974,-0.081153,https://www.flickr.com/photos/55935853@N00/1351799987/,unknown,unknown,false,true,July 2019,https://london.randomness.org.uk/wiki.cgi?Church_Street_Bookshop,,,,,,,,,,,,,,,,,,,,,,,,,,,,,,,,,,,,,,,,,,,,,,,,
centerprise-trust-bookshop-kingsland-road,Centerprise Trust Bookshop,"Self-described as ""one of East London’s oldest and most famous community bookshops"" and ""the home of Black cultural books and literature for East London"".  It was <a href=""http://hackneycitizen.co.uk/2012/11/04/centerprise-bookshop-seized-hackney-council/"">forced to close</a> in autumn 2012.","136-138 Kingsland Road, E8 2NS",,http://web.archive.org/web/20130315062054/http://www.centerprisetrust.org.uk:80/literature/,,51.549349,-0.075016,,unknown,unknown,false,false,,,,,,,,,,,,,,,,,,,,http://hackneycitizen.co.uk/2013/09/12/centerprise-history/,,,,,,,,,,,,,,,,,,,,,,,,,,,,,,
chener-books-lordship-lane,Chener Books,,"14 Lordship Lane, SE22 8HN",,,,51.460117,-0.075467,https://www.flickr.com/photos/rjw1/5089865536/,unknown,unknown,false,true,October 2010,"https://london.randomness.org.uk/wiki.cgi?Chener_Books,_SE22_8HN",,,,,,,,,,,,,,,,,,,http://peckhampeculiar.tumblr.com/post/103457719849/buy-the-book-part-1-chener-books,,,,,,,,,,,,,,,,,,,,,,,,,,,,,
chesham-bookshop,Chesham Bookshop,,"71 The Broadway, High Street, HP5 1BX",,,,51.706158,-0.61208,https://www.flickr.com/photos/kake_pugh/3975044917/,unknown,unknown,false,false,October 2009,https://london.randomness.org.uk/wiki.cgi?Chesham_Bookshop,,,,,,,,,,,,,,,,,,,,,,,,,,,,,,,,,,,,,,,,,,,,,,,,
chess-and-bridge,Chess & Bridge,"Games shop specialising in chess, bridge, and poker, with a large selection of books.","44 Baker Street, W1U 7RT",,,,51.517923,-0.153919,https://www.flickr.com/photos/kake_pugh/4440281829/,unknown,unknown,false,true,October 2009,"https://london.randomness.org.uk/wiki.cgi?Chess_And_Bridge,_W1U_7RT",,,,,,,,,,,,,,,,,,,,,,,,,,,,,,,,,,,,,,,,,,,,,,,,
childrens-bookshop-muswell-hill,Children's Bookshop (Muswell Hill),,"29 Fortis Green Road, Muswell Hill, N10 3HP",,,,51.590057,-0.146813,https://www.flickr.com/photos/kake_pugh/9457988181/,unknown,unknown,false,true,August 2013,,,,,,,http://londonbooks.tumblr.com/post/147887743161/,,,,,,,,,,,,,,,,,,,,,,,,,,,,,,,,,,,,,,,,,,
chorleywood-bookshop,Chorleywood Bookshop,,"4 New Parade, WD3 5NJ",,http://www.chorleywoodbookshop.co.uk/,,51.65512,-0.52173,https://www.flickr.com/photos/kake_pugh/9439748984/,unknown,unknown,false,true,August 2013,,,,,,,,,,,,,,,,,,,,,,,,,,,,,,,,,,,,,,,,,,,,,,,,,
claire-de-rouen-books-soho,Claire de Rouen Books,"Specialist in photography, fashion, and art books.","First Floor, 125 Charing Cross Road, Soho, WC2H 0EW",,http://clairederouenbooks.com/,020 7287 1813,51.515011,-0.13006394,https://www.flickr.com/photos/kake_pugh/16556379638/,true,unknown,false,true,March 2015,,,,,,,http://londonbooks.tumblr.com/post/128982455616/,,,,,,,,,,,,,,,,,,,,,,,,,,,,,,,,,,,,,,,,,,
clapham-books,Clapham Books,"Previously located at 120 Clapham High Street (<a href=""http://www.flickr.com/photos/kake_pugh/3551895419/"">photo</a>).","26 The Pavement, Clapham Common, SW4 0JA",,http://www.claphambooks.com/,,51.462405,-0.14025633,https://www.flickr.com/photos/kake_pugh/15214169085/,unknown,unknown,false,true,September 2014,,ClaphamBooks,,,http://londonist.com/2009/09/biblio-text_clapham_books.php,,,,,,,,,,,,,,,,,,,,,,,,,,,,,,,,,,,,,,,,,,,,
classic-library,Classic Library,,"533 King's Road, SW10 0TZ",,,,51.480328,-0.18533,,unknown,unknown,false,true,,,,,,,,,,,,,,,,,,,,,,,,,,,,,,,,,,,,,,,,,,,,,,,,,,
clerkenwell-tales,Clerkenwell Tales,"Closed in February 2014 due to <a href=""https://twitter.com/ClerkenwellTale/status/426690622372581376"">relocation to Toronto</a>.","30 Exmouth Market, EC1R 4QE",,,,51.525841,-0.109059,https://www.flickr.com/photos/90117465@N00/12381138873/,unknown,unknown,false,false,,,ClerkenwellTale,,,,,,http://www.tiredoflondontiredoflife.com/2013/05/buy-books-at-clerkenwell-tales.html,,,,,,,,,,,,,,,,,,,,,,,,,,,,,,,,,,,,,,,,,
collinge-and-clark,Collinge and Clark,"Private press books, books about typography.","13 Leigh Street, WC1H 9EW",,,,51.526455,-0.125045,https://www.flickr.com/photos/55935853@N00/3445878406/,unknown,unknown,false,true,December 2012,,,,,,,http://londonbooks.tumblr.com/post/125102608231/,,,,,,,,,,,,,,,,,,,,,,,,,,,,,,,,,,,,,,,,,,
copperfields,Copperfield's,Closed down by Spring 2019.,"37 Hartfield Road, SW19 3SG",,,,51.419537,-0.205586,https://www.flickr.com/photos/kake_pugh/3676830134/,unknown,unknown,false,false,June 2009,,,,,,,http://londonbooks.tumblr.com/post/137009405056/,,,,,,,,,,,,,,http://www.yelp.co.uk/biz/copperfield-bookshop-london,,,,,,,,,,,,,,,,,,,,,,,,,,,,
croydon-bookshop,Croydon Bookshop,"<a href=""http://web.archive.org/web/20170129172118/http://www.inprint.co.uk/thebookguide/shops/news.php?y=16"">According to The Book Guide</a>, the Croydon Bookshop closed down in 2016 after 45 years, due to retirement of the owner.","304 Carshalton Road, SM5 3QB",,,,51.362991,-0.173378,,unknown,unknown,false,false,,,,,,,,http://londonbooks.tumblr.com/post/134204103091/,,,,,,,,,,,,,,,,,,,,,,,,,,,,,,,,,,,,,,,,,,
ct-pocket,CT Pocket,"Mini arts bookshop in the Bearspace art gallery, opened in September 2009.","152 Deptford High Street, SE8 3PQ",,,,51.479225,-0.025894,,unknown,unknown,false,true,,,,,,,,,,,,,,,,,,,,,,,http://deptforddame.blogspot.com/2009/08/new-art-bookshop-at-bearspace.html,,,,,,,,,,,,,,,,,,,,,,,,,,,
daunt-books-marylebone,Daunt Books (Marylebone),"Specialist travel bookshop, part of a small chain.","83 Marylebone High Street, W1U 4QW",,http://www.dauntbooks.co.uk/,,51.520393,-0.152017,https://www.flickr.com/photos/55935853@N00/2417477044/,true,unknown,false,true,,https://london.randomness.org.uk/wiki.cgi?Daunt_Books%2C_W1U_4QW,DauntBooks,,,,,,,,,,,,,,,,,,,,,,,,,,,,,,,,,,,,,,,,,,,,,,,
daunt-books-hampstead,Daunt Books (Hampstead),"Specialist travel bookshop, part of a small chain.","51 South End Road, NW3 2QB",,http://www.dauntbooks.co.uk/,,51.555542,-0.166726,,true,unknown,false,true,,"https://london.randomness.org.uk/wiki.cgi?Daunt_Books,_NW3_2QB",DauntBooks,,,,,,,,,,,,,,,,,,,,,,,,,,,,,,,,,,,,,,,,,,,,,,,
daunt-books-cheapside,Daunt Books (Cheapside),"Specialist travel bookshop, part of a small chain.","61 Cheapside, EC2V 6AX",,http://www.dauntbooks.co.uk/,,51.513916,-0.093065,https://www.flickr.com/photos/90117465@N00/10158112925/,true,unknown,false,true,December 2014,"https://london.randomness.org.uk/wiki.cgi?Daunt_Books,_EC2V_6AX",DauntBooks,,,,,,,,,,,,,,,,,,,,,,,,,,,,,,,,,,,,,,,,,,,,,,,
daunt-books-belsize-park,Daunt Books (Belsize Park),"Specialist travel bookshop, part of a small chain.","193 Haverstock Hill, NW3 4QL",,http://www.dauntbooks.co.uk/,,51.550484,-0.165439,https://www.flickr.com/photos/kake_pugh/9295393346/,true,unknown,false,true,July 2013,,DauntBooks,,,,,http://londonbooks.tumblr.com/post/115872013316/,,,,,,,,,,,,,,,,,,,,,,,,,,,,,,,,,,,,,,,,,,
daunt-books-holland-park,Daunt Books (Holland Park),"Specialist travel bookshop, part of a small chain.","112-114 Holland Park Avenue, W11 4UA",,http://www.dauntbooks.co.uk/,,51.506767,-0.207539,https://www.flickr.com/photos/kake_pugh/9351995567/,true,unknown,false,true,July 2013,,DauntBooks,,,,,,,,,,,,,,,,,,,,,,,,,,,,,,,,,,,,,,,,,,,,,,,
daunt-books-chelsea,Daunt Books (Chelsea),"Specialist travel bookshop, part of a small chain.","158-164 Fulham Road, SW10 9PR",,http://www.dauntbooks.co.uk/,,51.486608,-0.179903,https://www.flickr.com/photos/kake_pugh/15553634920/,true,unknown,false,true,October 2014,,DauntBooks,,,,,,,,,,,,,,,,,,,,,,,,,,,,,,,,,,,,,,,,,,,,,,,
donlon-books-hackney,Donlon Books (Hackney),"Specialises in art, music, fashion, philosophy, and erotica.  Also has a branch <a href=""donlon-books-soho.html"">in Soho</a>.","75 Broadway Market, Hackney, E8 4PH",,http://donlonbooks.com/,,51.537629,-0.061104342,,true,unknown,false,true,,,DonlonBooks,,,,,http://londonbooks.tumblr.com/post/110744919366/donlon-books-e8-just-over-the-road-from-our-last,,,,,,,,,,,,,,,,,,,,,,,,,,,,,,,,,,,,,,,,,,
donlon-books-soho,Donlon Books (Soho),"Specialises in art, music, fashion, philosophy, and erotica.  Also has a branch <a href=""donlon-books-hackney.html"">in Hackney</a>.","62 Kingly Street, Soho, W1B 5QN",,http://donlonbooks.com/,,51.5123,-0.13891254,,true,unknown,false,true,,,DonlonBooks,,,,,http://londonbooks.tumblr.com/post/114342938901/,,,,,,,,,,,,,,,,,,,,,,,,,,,,,,,,,,,,,,,,,,
dulwich-books,Dulwich Books,,"6 Croxted Road, SE21 8SW",,http://www.dulwichbooks.co.uk/,,51.436676,-0.090444,,unknown,unknown,false,true,,,DulwichBooks,,,,,,,,,,,,,,,,,,,,,,,,,,,,,,,,,,,,,,,,,,,,,,,
dulwich-village-books,Dulwich Village Books,The interweb is unsure of its exact name...,"1d Calton Avenue, SE21 7DE",,,,51.451534,-0.084522,,unknown,unknown,false,true,,,,,,,,,,,,,,,,,,,,,,,,,,,,,,,,,,,,,,,,,,,,,,,,,,
ealing-books,Ealing Books,Closed down by August 2014.,"20 South Ealing Road, W5 4QA.",,http://web.archive.org/web/20140213003929/http://www.ealingbooks.co.uk:80/,,51.503548,-0.306957,,unknown,unknown,false,false,,,,,,,,,,,,,,,,,,,,,,,,http://www.getwestlondon.co.uk/news/local-news/ealing-bookseller-defies-trend-towards-5982071,,,,,,,,,,,,,,,,,,,,,,,,,,
earlsfield-bookshop,Earlsfield Bookshop,Closed down by 2012.  The old premises were demolished as part of the widening of Earlsfield Station entrance.,"513 Garratt Lane, SW18 4SW",,,,51.442478,-0.188355,https://www.flickr.com/photos/55935853@N00/3991431104/,unknown,unknown,false,false,,,,,,,,,,,,,,,,,,,,,,http://www.yelp.co.uk/biz/the-earlsfield-book-shop-london,,,,,,,,,,,,,,,,,,,,,,,,,,,,
brick-lane-bookshop,Brick Lane Bookshop,"Previously known as Eastside Books (<a href=""http://flickr.com/photos/kake_pugh/2476108271/"">photo</a>).","166 Brick Lane, E1 6RU",,http://www.bricklanebookshop.org/,,51.521683,-0.071497,https://www.flickr.com/photos/kake_pugh/9977950445/,unknown,unknown,false,true,August 2019,,BrickLaneBooks,,,http://londonist.com/2009/06/biblio-text_eastside_books.php,,,,,,,,,,,,,,,,,,,,,,,,,,,,,,,,,,,,,,,,,,,,
burley-fisher-books-dalston,Burley Fisher Books,"Run by the people behind <a href=""camden-lock-books-old-street.html"">Camden Lock Books</a>.","400 Kingsland Road, Dalston, E8 4AA",,http://www.burleyfisherbooks.com/,020 7249 2263,51.541536,-0.076033518,https://www.flickr.com/photos/kake_pugh/28908955995/,,,,true,August 2016,,BurleyFisher,,,http://londonist.com/2016/02/new-indie-bookshop-opens-in-hackney,,http://londonbooks.tumblr.com/post/141653681291/burley-fisher-books-e8-delighted-to-see-another,,,,,,,,,,,,http://hackneycitizen.co.uk/2016/02/16/burley-fisher-bookshop-dalston-boost-local-publishers/,,,,,,,,,,,,,,,,,,,,,,,,,,,,,,
epping-bookshop,Epping Bookshop,Closed down in late 2015.,"71 High Street, CM16 4BA",,http://epping-bookshop.co.uk/,,51.696609,0.107481,https://www.flickr.com/photos/kake_pugh/2904726201/,unknown,unknown,false,false,,https://london.randomness.org.uk/wiki.cgi?Epping_Bookshop,,,,,,,,,,,,,,,,,,,,,,,,,,,,,,,,,,,,,,,,,,,,,,,,
european-bookshop-south-kensington,European Bookshop,"Previously at 5 Warwick Street, Soho, but moved to South Kensington by March 2016.</p><p>Its new premises were previously occupied by another bookshop run by publishing company Slightly Foxed (from Autumn 2009 to January 2016), and before that by the Gloucester Road Bookshop.</p>","123 Gloucester Road, South Kensington, SW7 4TE",,http://www.europeanbookshop.com/,,51.493176,-0.181575,,unknown,unknown,false,true,,,,,,,,http://londonbooks.tumblr.com/post/114062186071/,,,,,,,,,,,,,,,,,,,,,,,,,,,,,,,,,,,,,,,,,,
faction-bookshop-lee,Faction Bookshop,,"2 Leegate, Lee, SE12 8SS",,,,51.455556,0.011987194,,unknown,true,false,true,,,,,,,,http://londonbooks.tumblr.com/post/86225359416/faction-bookshop-se12-a-very-fortuitous,,,,,,http://web.archive.org/web/20150927044802/http://www.inprint.co.uk:80/thebookguide/shops/multi.php?id=2334,,,,,,,,,,,,,,,,,,,,,,,,,,,,,,,,,,,,
falconwood-transport-and-military-bookshop,Falconwood Transport and Military Bookshop,,"5 Falconwood Parade, The Green, DA16 2PL",,,,51.456776,0.094414,,unknown,unknown,false,true,,,,,,,,,,,,,,,,,,,,,,,,,,,,,,,,,,,,,,,,,,,,,,,,,,
fisher-and-sperr,Fisher and Sperr,"<a href=""http://library-keeper.livejournal.com/9021.html"">Closed in early 2010</a>.","46 Highgate High Street, N6 5JB",,,,51.570816,-0.14735,https://www.flickr.com/photos/55935853@N00/8026334691/,unknown,unknown,false,false,,,,,,,,,,,,,,,,,,,,,,,,,http://www.dalemcgowan.com/samples/bookcrawling.html,,,,,,,,,,,,,,,,,,,,,,,,,
fold-peckham,The Fold,Closed down by early 2017.,"Holdron's Arcade, 135a Rye Lane, Peckham, SE15 4ST","SE15, Peckham",,,51.469515,-0.068122342,,unknown,true,false,false,,,TheFoldPeckham,,,,,http://londonbooks.tumblr.com/post/140142228836/,,,,,,,,,,,,,,,,,,,,,,,,,,,,,,,,,,,,,,,,,,
folio-society-holborn,The Folio Society,,"44 Eagle Street, Holborn, WC1R 4FS","WC1, Holborn",http://www.foliosociety.com/,020 7400 4200,51.518774,-0.11753802,,,,,true,,,FolioSociety,,,,,http://londonbooks.tumblr.com/post/151553396476/the-folio-society-wc1r-near-holborn-on-eagle,,,,,,,,,,,,,,,,,,,,,,,,,,,,,,,,,,,,,,,,,,
forbidden-planet-croydon,Forbidden Planet (Croydon),"Comics and graphic novels.  Previously located at 175 North End, CR0 1TP, but moved to Church Street in late 2011.","43 Church Street, CR0 1RH",,http://www.forbiddenplanet.co.uk/,,51.3733010355549,-0.10271086892913,https://www.flickr.com/photos/kake_pugh/7616724606/,true,unknown,false,true,September 2016,,,,,,"http://croydon.randomness.org.uk/wiki.cgi?Forbidden_Planet,_43_Church_Street",,,,,,,,,,,,,,,,,,,,,,,,,,,,,,,,,,,,,,,,,,,
forbidden-planet-shaftesbury-avenue,Forbidden Planet (Shaftesbury Avenue),,"179 Shaftesbury Avenue, WC2H 8JR",,http://forbiddenplanet.com/WhereWeAre.html,,51.515205,-0.127265,,unknown,unknown,false,true,,,,,,,,,,,,,,,,,,,,,,,,,,,,,,,,,,,,,,,,,,,,,,,,,,
fosters-bookshop-chiswick,Fosters Bookshop,Second-hand and antiquarian.,"183 Chiswick High Road, W4 2DR.",,,,51.492378,-0.257106,https://www.flickr.com/photos/kake_pugh/2493085533/,unknown,unknown,false,true,,"https://london.randomness.org.uk/wiki.cgi?Fosters_Bookshop,_W4_2DR",fostersbookshop,,,,,,,,,,,,,,,,,,,,,,,,,,,,,,,,,,,,,,,,,,,,,,,
foyles-charing-cross-road,Foyles at Charing Cross Road (incorporating Grant and Cutler),"Founded in 1903 and on Charing Cross Road since 1906, this is the flagship Foyles store.  It's used several addresses on this road.  Its longest stint was at numbers 113–119, but in early June 2014 it moved from there to number 107.  It also incorporates <a href=""http://www.grantandcutler.com/"">Grant and Cutler</a>, a specialist foreign-language bookseller.","107 Charing Cross Road, WC2H 0DT",,http://www.foyles.co.uk/Public/Stores/Detail.aspx?storeid=1011,,51.51428,-0.12977023,,true,false,false,true,,,Foyles,,,,,,http://www.tiredoflondontiredoflife.com/2014/06/browse-books-at-new-foyles.html,,,,,,,,,,,,,,,,,http://diamondgeezer.blogspot.co.uk/2014/06/new-foyles.html,,,,,,,,,,,,,,,,,,,,,,,,
foyles-pancras-road,Foyles at St Pancras International,Now closed; was a branch of Foyles inside St Pancras International itself.  It closed in late July or early August 2014.,"Unit 8A, St Pancras Station, Euston Road, N1C 4QL",,http://www.foyles.co.uk/,,51.530453,-0.125334,https://www.flickr.com/photos/rjw1/8269863312/,true,unknown,false,false,July 2013,,Foyles,,,,,,,,,,,,,,,,,,,,,,,,,,,,,,,,,,,,,,,,,,,,,,,
foyles-southbank,Foyles at Royal Festival Hall,"Opened in June 2005. This branch of Foyles is right next to the river, and in the summer there are deckchairs outside for a river view. It sells fiction, children’s books, and non-fiction including travel, biography, philosophy, and cookery, as well as magazines, gifts, and DVDs. There’s step-free access to all areas of the shop.","Southbank Centre, SE1 8XX",,http://www.foyles.co.uk/Public/Stores/Detail.aspx?storeid=1010,020 7440 3212,51.505882,-0.117309,https://www.flickr.com/photos/kake_pugh/2672916162/,true,unknown,false,true,July 2013,,Foyles,,,,,,,,,,,,,,,,,,,,,,,,,,,,,,,,,,,,,,,,,,,,,,,
foyles-waterloo,Foyles at Waterloo Station,"A small Foyles branch in Waterloo Station. Most of the fiction is on the mezzanine level, and there is no lift.","Unit 22, Lower Concourse, London Waterloo Station, SE1 8SW",,http://www.foyles.co.uk/Public/Stores/Detail.aspx?storeid=1019,020 3206 2680,51.50316,-0.11273,https://www.flickr.com/photos/kake_pugh/48707771846/,true,unknown,false,true,September 2019,,Foyles,,,,,,,,,,,,,,,,,,,,,,,,http://www.london-se1.co.uk/news/view/7394,,,,,,,,,,,,,,,,,,,,,,,
foyles-westfield,Foyles at Westfield White City,"The Westfield White City branch of Foyles. Sells fiction including children’s books and bestsellers, and non-fiction including biography, travel, history, business, sport, cookery, art, and fashion. Also stocks audiobooks, book tokens, gifts, stationery, cards, and wrapping paper. There’s step-free access to all areas of the shop.","Unit 2054, Westfield White City, W12 7GE",,http://www.foyles.co.uk/Public/Stores/Detail.aspx?storeid=1012,020 3206 2656,51.507446,-0.221658,,true,false,false,true,July 2013,,Foyles,,,,,,,,,,,,,,,,,,,,,,,,,,,,,,,,,,,,,,,,,,,,,,,
foyles-westfield-stratford,Foyles at Westfield Stratford City,"The Westfield Stratford City branch of Foyles. It includes a children’s area, and there’s step-free access to all areas of the shop.","74-75 Lower Ground Floor, The Arcade, Westfield Stratford City, E20 1EH",,http://www.foyles.co.uk/Public/Stores/Detail.aspx?storeid=1016,020 3206 2671,51.543943,-0.0054387153,https://www.flickr.com/photos/rjw1/15011149393/,true,false,false,true,October 2014,,Foyles,,,,,,,,,,,,,,,,,,,,,,,,,,,,,,,,,,,,,,,,,,,,,,,
foyles-one-new-change,Foyles at One New Change,"A branch of Foyles in the One New Change shopping centre; it <a href=""http://www.thebookseller.com/news/foyles-close-one-new-change-today.html"">closed for good</a> in November 2011.","One New Change, 25 Upper Cheapside Passage, EC2V 6AG",,http://www.foyles.co.uk/,,51.514397,-0.09664,,unknown,unknown,false,false,,,Foyles,,,http://londonist.com/2010/11/biblio-text_foyles_one_new_change.php,,,,,,,,,,,,,,,,,,,,,,,,,,,,,,,,,,,,,,,,,,,,
freedom-bookshop-whitechapel,Freedom Bookshop,"Note: The Freedom Bookshop <a href=""https://twitter.com/Freedom_Paper/status/297332447039856640"">was firebombed</a> on the night of 31 January 2013.  As of mid-February, they were back open again at the same address with a temporary <a href=""http://web.archive.org/web/20140331185956/http://www.freedompress.org.uk/news/2013/02/12/rainbow-shop-opens-2/"">rainbow bookshop</a>.  They reopened the main bookshop again properly <a href=""https://twitter.com/Freedom_Paper/status/340804390195699713"">on 1 June 2013</a>.","84b Whitechapel High Street, E1 7QX",,http://www.freedompress.org.uk/,,51.515953,-0.070424,https://www.flickr.com/photos/kake_pugh/35339263285/,unknown,unknown,false,true,June 2017,,Freedom_Paper,,,,,http://londonbooks.tumblr.com/post/124176982077/,,,,,,,,,,,,,,,,,,,,,,,,,,,,,,,,,,,,,,,,,,
french-bookshop,French Bookshop,Closed down by August 2016.,"28 Bute Street, SW7 3EX",,,,51.493839,-0.17648761,,unknown,unknown,false,false,,,,,,,,,,,,,,,,,,,,,,,,,,,,,,,,,,,,,,,,,,,,,,,,,,
gays-the-word,Gay's The Word,,"66 Marchmont Street, WC1N 1AB",,http://www.gaystheword.co.uk/,,51.525154,-0.125077,https://www.flickr.com/photos/kake_pugh/26446247762/,unknown,unknown,false,true,April 2016,https://london.randomness.org.uk/wiki.cgi?Gay%27s_The_Word,gaystheword,,,,,,,,,,,,,,,,,,,,,,,,,,,,,,,,,,,,,,,,,,,,,,,
g-heywood-hill,G Heywood Hill Ltd,,"10 Curzon Street, W1J 5HH",,http://www.heywoodhill.com/,,51.506985,-0.146567,https://www.flickr.com/photos/rjw1/14070633977/,true,true,false,true,May 2014,,HeywoodHill,,,http://londonist.com/2009/06/biblio-text_heywood_hill.php,,http://londonbooks.tumblr.com/post/140963371176/,,,,,,,,,,,,,,,,,,,,,,,,,,,,,,,,,,,,,,,,,,
goldsboro-books-cecil-court,Goldsboro Books,"Specialist in signed modern first editions.  Located on <a href=""http://cecilcourt.co.uk/"">Cecil Court</a>, a small lane running between Charing Cross Road and St Martin's Lane with several other specialist/rare/antiquarian bookshops.","23-27 Cecil Court, Covent Garden, WC2N 4EZ",,http://www.goldsborobooks.com/,020 7497 9230,51.510686,-0.128129,https://www.flickr.com/photos/kake_pugh/30548378421/,true,unknown,false,true,October 2016,,,,,,,,,,,,,,,,,,,,,,,,,,,,,,,,,,,,,,,,,,,,,,,,,
gosh,Gosh,"Moved to Berwick Street on 6 Aug 2011, previously at 39 Great Russell Street, WC1B 3NZ.","1 Berwick Street, W1F 0DR",,http://goshlondon.blogspot.com/,,51.512836,-0.134239,https://www.flickr.com/photos/kake_pugh/29989010204/,unknown,unknown,false,true,October 2016,,,,,,,,,,,,,,,,,,,,,,,,,,,,,,,,,,,,,,,,,,,,,,,,,
greenwich-book-place,Greenwich Book Place,"Closed at one point — <a href=""http://www.thegreenwichphantom.co.uk/2011/06/random-things-noted/"">Greenwich Phantom report</a> — but <a href=""http://www.thegreenwichphantom.co.uk/2011/06/8168/"">then reopened</a> – and finally closed down for good in August 2016.  It was <a href=""http://www.fromthemurkydepths.co.uk/2017/09/20/former-greenwich-pub-and-shop-demolished/"">demolished</a> in September 2017.","258 Creek Road, SE10 9SW",,http://web.archive.org/web/20130216040149/http://ukbookworld.com/members/Greenspace,,51.481331,-0.013261,https://www.flickr.com/photos/kake_pugh/9365939641/,unknown,unknown,false,false,,,,,,,,,,,,,,,,,,,,,,,,,,,,http://www.thegreenwichphantom.co.uk/2009/11/greenwich-book-place.html,,,,,,,,,,,,,,,,,,,,,,
greenwich-book-time,Greenwich Book Time,,"277 Greenwich High Road, SE10 8NB",,,,51.47946,-0.010091409,https://www.flickr.com/photos/kake_pugh/48693740313/,,,,true,September 2019,,GreenwichBookT,,,,,,,,,,,,,,,,,,,,,,,,,,,,,,,,,,,,,,,,,,,,,,,
guanghwa-books,Guanghwa Books,"Previously at 7 Newport Place, WC2H 7JR.","112 Shaftesbury Avenue, Chinatown, W1D 5EJ",,http://www.cypressbooks.com/howtofindus.php,,51.51234,-0.13080288,https://www.flickr.com/photos/kake_pugh/26512600106/,unknown,unknown,false,true,April 2016,,,,,,,,,,,,,,,,,,,,,,,,,,,,,,,,,,,,,,,,,,,,,,,,,
halcyon-books-greenwich,Halcyon Books (Greenwich),"Closed down <a href=""https://twitter.com/HalcyonBooks/status/1057566538667118592"">at the end of October 2018</a>.  Its <a href=""halcyon-books-lee.html"">other branch in Lee</a> remains open.","1 Greenwich South Street, SE10 8NW",,http://www.halcyonbooks.co.uk/,,51.47784,-0.011823,https://www.flickr.com/photos/kake_pugh/13215687483/,unknown,unknown,false,false,March 2014,https://london.randomness.org.uk/wiki.cgi?Halcyon_Books,HalcyonBooks,,,,,,,,,,,,,,,,,,,,,,,,,,,,,,,,,,,,,,,,,,,,,,,
halcyon-books-lee,Halcyon Books (Lee),"The second branch of <a href=""halcyon-books-greenwich.html"">the original one in Greenwich</a> (which has since closed).  This one opened in early 2016.","266 Lee High Road, SE13 5PL",,http://www.halcyonbooks.co.uk/,,51.458519,0.0029655844,,,,,true,September 2019,,HalcyonBooks,,,,,http://londonbooks.tumblr.com/post/141364307440/,,,,,,,,,,,,,,,,,,,,,,,,,,,,,,,,,,,,,,,,,,
hatchards-piccadilly,Hatchards (Piccadilly),"The original branch of Hatchards.  In August 2014 it opened a second branch <a href=""http://londonbookshops.org/shops/hatchards-st-pancras.html"">in St Pancras International</a>.","187 Piccadilly, W1J 9LE",,http://www.hatchards.co.uk/,,51.508549,-0.137984,https://www.flickr.com/photos/rjw1/15953763950/,true,unknown,false,true,December 2014,,Hatchards,,,http://londonist.com/2009/09/biblio-text_hatchards.php,,http://londonbooks.tumblr.com/post/109799665901,http://www.tiredoflondontiredoflife.com/2009/10/browse-at-hatchards-britains-oldest.html,,http://web.archive.org/web/20130421025746/http://kimbofo.typepad.com/readingmatters/2009/01/a-visit-to-the-oldest-bookshop-in-london.html,,,,,,,,,,,,,,,,,,http://londonrobstuff.blogspot.com/2010/09/hatchards-piccadilly-w1.html,,,,,,,,,,,,,,,,,,,,,
hatchards-st-pancras,Hatchards (St Pancras),"The second branch of Hatchards, the original being <a href=""http://londonbookshops.org/shops/hatchards-piccadilly.html"">on Piccadilly</a>.  This one opened in August 2014.","St Pancras International, N1C 4QP",,http://www.hatchards.co.uk/,020 7278 1238,51.531428,-0.126134,https://www.flickr.com/photos/rjw1/15640486725/,unknown,unknown,false,true,October 2014,,Hatchards,,,,,http://londonbooks.tumblr.com/post/147536424356/,,,,,,,,,,,,,,,,,,,,,,,,,,,,,,,,,,,,,,,,,,
hellenic-bookservice,Hellenic Bookservice,"Greek and Latin books.  Previously at number 49-51, now at number 89.","89 Fortess Road, NW5 1AG",,http://www.hellenicbookservice.com/,,51.554713,-0.140129,https://www.flickr.com/photos/kake_pugh/9377586063/,unknown,unknown,false,true,July 2013,,,,,,,,,,,,,,,,,,,,,,,,,,,,,,,,,,,,,,,,,,,,,,,,,
henry-pordes-books-charing-cross-road,Henry Pordes Books,"Second-hand, antiquarian, and out-of-print books.","58-60 Charing Cross Road, WC2H 0BB",,http://www.henrypordesbooks.com/,,51.512348,-0.128531,https://www.flickr.com/photos/kake_pugh/2445597342/,unknown,unknown,false,true,,,,,,,,http://londonbooks.tumblr.com/post/117709762571/,,,,,,,,,,,,,,,,,,,,,,,,,,,,,,,,,,,,,,,,,,
henry-stokes-and-co,Henry Stokes and Co,"a carefully chosen selection of the best new titles in biography and fiction [...] Books as presents are also very important at Stokes and all the most interesting recently published decorating, gardening, cookery and wine, and travel books are stocked.","58 Elizabeth Street, SW1W 9PB",,http://www.henrystokes.co.uk/,,51.494038,-0.15132,,unknown,unknown,false,true,,,,,,,,,,,,,,,,,,,,,,,,,,,,,,,,,,,,,,,,,,,,,,,,,,
herne-hill-books,Herne Hill Books,,"289 Railton Road, SE24 0NQ",,,,51.453211,-0.10288109,https://www.flickr.com/photos/kake_pugh/29179989085/,unknown,unknown,false,true,August 2016,,HerneHillBooks,,,,,,,,,,,,,,,,,,,,,,,,,,,,,,,,,,,,,,,,,,,,,,,
highgate-bookshop,Highgate Bookshop,,"9 Highgate High Street, N6 5JR",,,,51.570267,-0.146127,,unknown,unknown,false,true,,,,,,,,http://londonbooks.tumblr.com/post/131876983511/,,,,,,,,,,,,,,,,,,,,,,,,,,,,,,,,,,,,,,,,,,
high-stakes-bookshop,High Stakes Bookshop,"Used to sell gambling books, before moving to online only.  As of December 2012 the Great Ormond Street premises are occupied by a shop called Volte Face (<a href=""http://www.flickr.com/photos/kake_pugh/8277022061/"">photo</a>).","21 Great Ormond Street, WC1N 3JB",,,,51.522121,-0.119219,,unknown,unknown,false,false,,,,,,,,,,,,,,,,,,,,,,,,,,,,,,,,,,,,,,,,,,,,,,,,,,
holborn-books,Holborn Books,"Computer bookshop.  Not sure when it was in operation, but it's now closed; as of December 2012 the premises are occupied by Brooks & Brooks hairdressers (<a href=""http://www.flickr.com/photos/kake_pugh/8276788017/"">photo</a>).","17 Sicilian Avenue, WC1A 2QH",,,,51.518372,-0.121365,,unknown,unknown,false,false,,,,,,,,,,,,,,,,,,,,,,,,,,,,,,,,,,,,,,,,,,,,,,,,,,
house-of-books,House Of Books,,"39 The Broadway, N8 8DT","Crouch End, N8",,,51.57958,-0.12390652,https://www.flickr.com/photos/kake_pugh/9461843016/,,,,true,August 2013,,,,,,,,,,,,,,,,,,,,,,,,,,,,,http://www.hamhigh.co.uk/news/new-chapter-for-crouch-end-book-store-1-630698,,,,,,,,,,,,,,,,,,,,
house-of-hodge,House Of Hodge,Charity bookshop.  The frontage has no sign except for an old one reading 'A Wilsher & Son'.,"174 Blackstock Road, N5 1HA",,,,51.560016,-0.09872,https://www.flickr.com/photos/kake_pugh/9335707588/,unknown,true,true,true,July 2013,,,,,,,,,,,,,,,,,,,,,,,,,,,,,,http://www.andrewwhitehead.net/1/post/2012/09/charity-begins-at-the-bookshop.html,,,,,,,,,,,,,,,,,,,
housmans-booksellers,Housmans Booksellers,"Radical/far left bookshop.  Socialism, communism, anarchism.  Downstairs is Woburn Books & Porcupine Bookcellar.","5 Caledonian Road, N1 9DX",,http://www.housmans.com/,,51.531319,-0.120957,,unknown,unknown,false,true,,https://london.randomness.org.uk/wiki.cgi?Housmans_Booksellers,HousmansBooks,,,,,,,,,,,,,,,,,,,,,,,,,,,,,,,,,,,,,,,,,,,,,,,
hurlingham-books-fulham,Hurlingham Books,,"91 Fulham High Street, SW6 3JS",,http://www.hurlinghambooks.com/,,51.468086,-0.210092,https://www.flickr.com/photos/kake_pugh/3842267881/,unknown,unknown,false,true,May 2017,,,,,,,,,,,,,,,,,,,,,,,,,,,,,,,,,,,,,,,,,,,,,,,,,
ian-allan-bookshop-lower-marsh,Ian Allan Bookshop,"Specialists in transport and military — books, DVDs, models, etc.","45-46 Lower Marsh, SE1 7RG.",,http://www.ianallanpublishing.com/our-shops.htm,,51.501049,-0.111923,https://www.flickr.com/photos/kake_pugh/38359523531/,unknown,unknown,false,true,November 2017,,,,,,,http://londonbooks.tumblr.com/post/121042294003/,,,,,,,,,,,,,,,,,,,,,,,,,,,,,,,,,,,,,,,,,,
ibis-bookshop,Ibis Bookshop,Closed down by September 2014.,"109 High Street, SM7 2NJ",,,,51.323265,-0.199513,https://www.flickr.com/photos/rjw1/6783815645/,unknown,unknown,false,false,,,,,,,,,,,,,,,,,,,,,,,,,,,,,,,,,,,,,,,,,,,,,,,,,,
idler-academy,Idler Academy,"Bookshop and cafe run by The Idler magazine.  It closed down by May 2016, though the magazine continued to publish.","81 Westbourne Park Road, W2 5QH",,http://idler.co.uk/,,51.519218,-0.195297,,unknown,unknown,false,false,,,,,,,,,,,,,,,,,,,,,,,,,,,,,,,,http://www.timeout.com/london/en_GB/venues/93441,,,,,,,,,,,,,,,,,,
ica-bookshop,Institute of Contemporary Arts,"Not precisely a bookshop per se, but their shop sells books.","The Mall, SW1Y 5AH",,,,51.505951,-0.130849,,unknown,unknown,false,true,,https://london.randomness.org.uk/wiki.cgi?Institute_Of_Contemporary_Arts,ICALondon,,,,,,,,,,,,,,,,,,,,,,,,,,,,,,,,,,,,,,,,,,,,,,,
ink-84-highbury,Ink@84,"Bookshop, cafe, and bar.","84 Highbury Park, N5 2XE",,http://www.ink84bookshop.co.uk/,020 7686 8388,51.557356,-0.098001748,,unknown,unknown,false,true,,,Ink84Books,,,,,http://londonbooks.tumblr.com/post/143315317482,,,,,,,,,,,,,,,,,,,,,,,,,,,,,,,,,,,,,,,,,,
jambala,Jambala,,"247 Globe Road, E2 0JD",,http://www.jambala-bookshop.blogspot.com/,,51.528324,-0.051273,,unknown,unknown,false,true,,,,,,,,,,,,,,,,,,,,,,,,,,,,,,,,,,,,,,,,,,,,,,,,,,
jane-gibberd-lower-marsh,Jane Gibberd Secondhand Books,"Closed some time in 2013.  <a href=""http://www.london-se1.co.uk/news/view/7278"">According to LondonSE1</a>, this was due to the owners retiring.","20 Lower Marsh, SE1 7RJ",,,,51.500397,-0.113232,https://flickr.com/photos/kake_pugh/2680395581/,false,true,false,false,,https://london.randomness.org.uk/wiki.cgi?Jane_Gibberd_Secondhand_Books,,,,,,,,,,,,,,,,,,,,,,,,,,,,,,,,,,,,,,,,,,,,,,,,
jarndyce,Jarndyce,18th and 19th century English literature and history.,"46 Great Russell Street, WC1B 3PA",,http://www.jarndyce.co.uk/,,51.51807,-0.126386,https://www.flickr.com/photos/kake_pugh/45135847901/,unknown,unknown,false,true,October 2018,,,,,,,http://londonbooks.tumblr.com/post/126528120088/,,,,,,,,,,,,,,,,,,,,,,,,,,,,,,,,,,,,,,,,,,
jonathan-potter,Jonathan Potter Ltd,Moved to Bath in Autumn 2015.,"52a George Street, Marylebone, W1U 7EA",,http://jpmaps.co.uk/,,51.517664,-0.15455653,,unknown,unknown,false,false,,,,,,,,,,,,,,http://web.archive.org/web/20160806040755/http://www.inprint.co.uk/thebookguide/shops/multi.php?id=892,,,,,,,,,,,,,,,,,,,,,,,,,,,,,,,,,,,,
john-sandoe-books,John Sandoe Books,,"10 Blacklands Terrace, SW3 2SP",,http://www.johnsandoe.com/,,51.491364,-0.160954,,unknown,unknown,false,true,,https://london.randomness.org.uk/wiki.cgi?John_Sandoe_Books,,,,,,,,,,,,,,,,,,,,,,,,,,,,,,,,,,,,,,,,,,,,,,,,
john-trotter-books,Manor House Books/John Trotter Books,Jewish and Middle Eastern specialist.  Based inside the Sternberg Centre for Judaism; visitors must sign in at the lodge.,"80 East End Road, N3 2SY",,http://www.manorhousebooks.co.uk/,,51.595509,-0.189214,https://www.flickr.com/photos/kake_pugh/9458020785/,true,true,false,true,August 2013,,,,,,,,,,,,,,,,,,,,,,,,,,,,,,,,,,,,,,,,,,,,,,,,,
josephs-bookstore,Joseph's Bookstore,,"1257 Finchley Road, NW11 0AD",,http://www.josephsbookstore.com/,,51.586334,-0.2002,https://www.flickr.com/photos/55935853@N00/3991435476/,unknown,unknown,false,true,,,,,,http://londonist.com/2009/06/biblio-text_josephs_bookstore.php,,http://londonbooks.tumblr.com/post/143677382106,,,,,,,,,,,,,,,,,,,,,,,,,,,,,,,,,,,,,,,,,,
judd-books,Judd Books,,"82 Marchmont Street, WC1N 1AG.",,http://www.juddbooks.com/,,51.52597,-0.125499,https://www.flickr.com/photos/kake_pugh/28328314406/,unknown,unknown,false,true,July 2016,https://london.randomness.org.uk/wiki.cgi?Judd_Books,,,,,,,,,,,,,,,,,,,,,,,,,,,,,,,,,,,,,,,,,,,,,,,,
junk-shop-greenwich,Junk Shop,Stuff from house clearances including books.,"9 Greenwich South Street, SE10 8NW",,,,51.477554,-0.012038,https://www.flickr.com/photos/kake_pugh/48693741248/,false,true,false,true,September 2019,,,,,,,,,,,,,,,,,,,,,,,,,,,http://www.thegreenwichphantom.co.uk/2013/01/junk-shop-tea-rooms/,,,,,,,,,,,,,,,,,,,,,,
karnac-books-finchley-road,Karnac Books,A notice in the window describes them as “Specialist booksellers in psychoanalysis and related subjects est 1950”.,"118 Finchley Road, NW3 5HT",,http://www.karnacbooks.com/,,51.546631,-0.179021,,unknown,unknown,false,true,September 2014,,,,,,,,,,,,,,,,,,,,,,,,,,,,,,,,,,,,,,,,,,,,,,,,,
keith-fawkes-hampstead,Keith Fawkes,,"1-3 Flask Walk, NW3 1HJ",,,,51.556583,-0.177562,https://www.flickr.com/photos/55935853@N00/2624817957/,false,true,false,true,,"https://london.randomness.org.uk/wiki.cgi?Keith_Fawkes,_NW3_1HJ",,,,,,http://londonbooks.tumblr.com/post/115654075151/,,,,,,,,,,,,,,,,,,,,,,,,,,,,,,,,,,,,,,,,,,
kennington-bookshop,Kennington Bookshop,"This <a href=""http://web.archive.org/web/20150601093957/http://www.thekbookshop.com/"">closed for good</a> on <a href=""http://web.archive.org/web/20150601094044/https:/twitter.com/thekbookshop/status/567265163863396352"">31 May 2015</a>.","306-308 Kennington Road, SE11 4LD",,,,51.486713,-0.111794,https://flickr.com/photos/kake_pugh/2327287163/,true,false,false,false,,https://london.randomness.org.uk/wiki.cgi?Kennington_Bookshop,,,,,,,,,,,,,,,,,,,,,,,,,,,,,,,,,,,,,,,,,,,,,,,,
kew-bookshop,Kew Bookshop,"Run by the same people as the <a href=""http://londonbookshops.org/shops/barnes-bookshop.html"">Barnes Bookshop</a> and the <a href=""http://londonbookshops.org/shops/sheen-bookshop.html"">Sheen Bookshop</a>.","1-2 Station Approach, TW9 3QB",,,020 8940 0030,51.477455,-0.285687,https://flickr.com/photos/kake_pugh/2704390880/,true,false,false,true,July 2013,https://london.randomness.org.uk/wiki.cgi?Kew_Bookshop,,,,,,,,,,,,,,,,,,,,,,,,,,,,,,,,,,,,,,,,,,,,,,,,
kirkdale-bookshop-sydenham,Kirkdale Bookshop,,"272 Kirkdale, SE26 4RS",,http://www.kirkdalebookshop.com/,020 8778 4701,51.426628,-0.055575,https://flickr.com/photos/kake_pugh/2282119502/,true,true,false,true,August 2015,https://london.randomness.org.uk/wiki.cgi?Kirkdale_Bookshop,KirkdaleBooks,,,,,,,,,,,,,,,,,,,,,,,,,,,,,,,,,,,,,,,,,,,,,,,
k-k-outlet-hoxton,K K Outlet,Bookshop and gallery.,"42 Hoxton Square, N1 6PB",,http://www.kkoutlet.com/,,51.527284,-0.080649599,,,,,true,,,,,,,,http://londonbooks.tumblr.com/post/150576849227/,,,,,,,,,,,,,,,,,,,,,,,,,,,,,,,,,,,,,,,,,,
koenig-books-charing-cross-road,Koenig Books (Charing Cross Road),,80 Charing Cross Road.,,http://www.koenigbooks.co.uk/,020 7240 8190,51.512714,-0.128757,https://www.flickr.com/photos/kake_pugh/2445616864/,unknown,unknown,false,true,October 2014,,,,,,,,,,,,,,,,,,,,,,,,,,,,,,,,,,,,,,,,,,,,,,,,,
koenig-books-serpentine,Koenig Books (Serpentine Gallery),,"Serpentine Gallery, Kensington Gardens, W2 3XA",,http://www.serpentinegallery.org/bookshop.html,,51.504718,-0.17497578,,unknown,unknown,false,true,,,,,,,,,,,,,,,,,,,,,,,,,,,,,,,,,,,,,,,,,,,,,,,,,,
lamb-bookshop,Lamb Bookshop,"<a href=""http://web.archive.org/web/20170415160335/http://archive.westendextra.com/news/2013/mar/its-final-chapter-independent-bookshop-hit-rent-rise"">Closed down</a> in March 2013.","40 Lamb's Conduit Street, WC1N 3LJ",,http://web.archive.org/web/20130729034250/http://www.thelambbookshop.co.uk/,,51.521454,-0.118039,https://flickr.com/photos/kake_pugh/2852000214/,unknown,unknown,false,false,December 2012,,,,,,,,,,,,,,,,,,,,,,,,,,,,,,,,,,,,,,,,,,,,,,,,,
langtons-bookshop-twickenham,Langton's Bookshop,Closed for good at the end of June 2012.,"44-45 Church Street, TW1 3NT",,,,51.446774,-0.326757,https://www.flickr.com/photos/kake_pugh/5761263431/,true,false,false,false,,https://london.randomness.org.uk/wiki.cgi?Langton%27s_Bookshop,,,,,,,,,,,,,,,,,,,,,,,,,,,,,,,,,,,,,,,,,,,,,,,,
lcl-international-booksellers,LCL International Booksellers Ltd,"Now online only via <a href=""https://www.bebc.co.uk/"">BEBC</a>.  As of December 2012 the Judd Street premises are vacant and boarded up (<a href=""http://www.flickr.com/photos/rjw1/8268802739/"">photo</a>).","104 Judd Street, WC1H 9PU",,http://web.archive.org/web/20120321094049/http://www.lclib.com:80/,,51.527931,-0.124969,https://www.flickr.com/photos/kake_pugh/4620182072/,unknown,unknown,false,false,,,,,,,,,,,,,,,,,,,,,,,,,,,,,,,,,,,,,,,,,,,,,,,,,,
librairie-la-page,Librairie La Page,French-language books.,"7 Harrington Road, SW7 3ES",,http://www.librairielapage.com/,,51.494011,-0.17524575,,unknown,unknown,false,true,,,,,,,,,,,,,,,,,,,,,,,,,,,,,,,,,,,,,,,,,,,,,,,,,,
libreria-shoreditch,Libreria,,"65 Hanbury Street, Shoreditch, E1 5JP",,,,51.520318,-0.070559129,https://www.flickr.com/photos/kake_pugh/35339265275/,true,unknown,false,true,June 2017,,,,,,,http://londonbooks.tumblr.com/post/141852159721/libreria-ei-a-new-take-on-the-concept-of-the,,,,,,,,,,,,,,,,,,,,,,,,,http://www.theguardian.com/books/2016/feb/21/libreria-bookshop-rohan-silva-second-home-interview,,,,,,,,,,,,,,,,,
lion-and-unicorn-bookshop,Lion & Unicorn Bookshop,"Children's books.  Now <a href=""https://robskinner.net/2014/04/09/end-of-the-story-for-richmonds-lion-unicorn-bookshop/"">closed for good</a>, though some of the staff have opened up another children's bookshop called <a href=""alligators-mouth-richmond.html"">The Alligator's Mouth</a>.","19 King Street, TW9 1ND",,http://web.archive.org/web/20120830214253/http://www.lionunicornbooks.co.uk:80/html/index.php,,51.460083,-0.306909,,unknown,unknown,false,false,,,,,,http://londonist.com/2009/04/biblio-text_the_lion_unicorn_booksh.php,,,,,,,,,,,,,,,,,,,,,,,,,,,,,,,,,,,,,,,,,,,,
lloyds-of-kew,Lloyd's of Kew,,"9 Mortlake Terrace, Kew, TW9 3DT",,,,51.482605,-0.286426,https://flickr.com/photos/kake_pugh/2704615672/,unknown,unknown,false,true,,,,,,,,http://londonbooks.tumblr.com/post/117107607906/,,,,,,http://web.archive.org/web/20170811033237/http://www.inprint.co.uk/thebookguide/shops/multi.php?id=2615,,,,,,,,,,,,,,,,,,,,http://robaroundbooks.com/2009/06/bookshelf-of-the-week-lloyds-of-kew-surrey/,http://www.flickr.com/photos/53264755@N00/sets/72157594520880134/,,,,,,,,,,,,,,,
london-review-of-books,London Review Bookshop,,"14 Bury Place, WC1A 2JL",,http://www.lrbshop.co.uk/,,51.518509,-0.124062,https://www.flickr.com/photos/kake_pugh/2724084824/,true,false,false,true,July 2013,,LRBbookshop,,,http://londonist.com/2009/05/biblio-text_london_review_bookshop.php,,,,,,,,,,,,,,,,,,,,,,,,,,,,,,,,,,,,,,,,,,,,
lovejoys-charing-cross-road,Lovejoys,Bookshop with a sex shop in the basement.,"99a Charing Cross Road, WC2H 0DP",,,,51.513771,-0.129561,,unknown,unknown,false,true,,,,,,,,,,,,,,,,,,,,,,http://www.yelp.co.uk/biz/lovejoys-london-2,,,,,,,,,,,,,,,,,,,,,,,,,,,,
lucky-seven-stoke-newington,Lucky Seven,"Mostly records, but some secondhand books too.  Previously known as Ocean Books.  Ocean Books <a href=""http://www.stereostokey.com/2009/08/ocean-books-stoke-newington-closed/"">closed in August 2009</a> and the site is now occupied by Lucky Seven.","127 Stoke Newington Church Street, N16 0UH",,,,51.561733,-0.081035,https://www.flickr.com/photos/55935853@N00/8281035314/,false,true,false,true,December 2012,"https://london.randomness.org.uk/wiki.cgi?Lucky_Seven,_Stoke_Newington",,,,,,,,,,,,,,,,,,,,,,,,,,,,,,,,,,,,,,,,,,,,,,,,
lutyens-and-rubinstein,Lutyens and Rubinstein,,"21 Kensington Park Road, W11 2EU",,http://www.lutyensrubinstein.co.uk/bookshop-homepage/,,51.51506,-0.20564,https://www.flickr.com/photos/kake_pugh/16742839461/,unknown,unknown,false,true,March 2015,,LandRBookshop,,,,,,http://www.tiredoflondontiredoflife.com/2010/06/browse-for-books-at-lutyens-and.html,,,,,,,,,,,,,,,,,,,,,,,,,,,,,,,,,,,,,,,,,
maggs-bros-bloomsbury,Maggs Bros (Bloomsbury),"Rare books and manuscripts.  It also has <a href=""/shops/maggs-bros-mayfair.html"">a branch in Mayfair</a>.","48 Bedford Square, Bloomsbury, WC1B 3DR",,http://www.maggs.com/,020 7493 7160,51.518599,-0.12935449,,,true,,true,,,MaggsBros,,,,,,,,,,,http://web.archive.org/web/20170708041800/http://www.inprint.co.uk/thebookguide/shops/multi.php?id=882,,,,,,,,,,,,,,,,,,,,,,,,,,,,,,,,,,,,
maggs-bros-mayfair,Maggs Bros (Mayfair),"Rare books and manuscripts.  Originally at 50 Berkeley Square, it moved to 46 Curzon Street in November 2015.  In May 2017, it also opened <a href=""/shops/maggs-bros-bloomsbury.html"">new premises</a> in Bloomsbury.","46 Curzon Street, Mayfair, W1J 7UH",,http://www.maggs.com/,020 7493 7160,51.506799,-0.14655684,,unknown,true,false,true,,,MaggsBros,,,,,http://londonbooks.tumblr.com/post/140559056526/,,,,,,,,,,,,,,,,,,,,,,,,,,,,,,,,,,,,,,,,,,
magma-clerkenwell-road,Magma (Clerkenwell Road),,"117-119 Clerkenwell Road, EC1R 5BY",,http://www.magmabooks.com/,,51.521763,-0.11158,,unknown,unknown,false,true,,,,,,,,,,,,,,,,,,,,,,,,,,,,,,,,,,,,,,,,,,,,,,,,,,
magma-covent-garden,Magma (Covent Garden),"Closed down by August 2017, according to Google Street View.","8 Earlham Street, WC2H 9RY",,,,51.513489,-0.128424,,unknown,unknown,false,false,,,,,,,,,,,,,,,,,,,,,,,,,,,,,,,,,,,,,,,,,,,,,,,,,,
marchmont-bookshop,Marchmont Bookshop,"All secondhand.  Specialises in Middle-Eastern and African subjects, but also has some general stock.","39 Burton Street, WC1H 9AL",,,,51.526836,-0.128231,https://www.flickr.com/photos/rjw1/8268822289/,false,true,false,true,December 2012,,,,,,,,,,,,,,,,,,,,,,,,,,,,,,,,,,,http://bibliophilicblogger.blogspot.com/2009/04/londons-second-hand-bookshops-no-2.html,,,,,,,,,,,,,,
marchpane-cecil-court,Marchpane,"Specialist in rare children's and illustrated books.  Located on <a href=""http://cecilcourt.co.uk/"">Cecil Court</a>, a small lane running between Charing Cross Road and St Martin's Lane with several other specialist/rare/antiquarian bookshops.","16 Cecil Court, Covent Garden, WC2N 4HE",,,020 7836 8661,51.510745,-0.127881,https://www.flickr.com/photos/kake_pugh/30519768352/,unknown,true,false,true,January 2019,,,,,,,http://londonbooks.tumblr.com/post/120350699321/,,,,,,,,,,,,,,,,,,,,,,,,,,,,,,,,,,,,,,,,,,
marcus-campbell-art-books,Marcus Campbell Art Books,"New, out-of-print, second-hand, and rare books on 20th century and contemporary art.","43 Holland Street, SE1 9JR",,http://www.marcuscampbell.co.uk/,,51.507719,-0.10186587,,true,true,false,true,,,,,,,,,,,,,,,,,,,,,,,,,,,,,,,,,,,,,,,,,,,,,,,,,,
material-shoreditch,Material,"Focused on design, food, and children's books.","3 Rivington Street, Shoreditch, EC2A 3DT",,http://materialmaterial.com/,020 7739 1900,51.526113,-0.083169535,https://www.flickr.com/photos/kake_pugh/28710525116/,true,unknown,false,true,July 2016,,materialgallery,,,,,,,,,,,,,,,,,,,,,,,,,,,,,,,,,,,,,,,,,,,,,,,
metropolitan-books,Metropolitan Books,"<a href=""http://logophilia-logophile.blogspot.co.uk/2008/04/indy-bookseller-soon-to-be-no-more.html"">Closed down</a> in 2008.","49 Exmouth Market, EC1R 4QL",,http://web.archive.org/web/20080502131936/http://www.metropolitanbooks.co.uk:80/,,51.526062,-0.108941,,unknown,unknown,false,false,,,,,,,,,,,,,,,,,,,,,,,,,,,,,,,,,,,,,,,,,,,,,,,,,,
morden-hall-park-bookshop,Morden Hall Park Bookshop,,"Morden Hall Park, Morden Hall Road, SM4 5JD",,http://www.nationaltrust.org.uk/morden-hall-park/,,51.402331,-0.18809715,https://www.flickr.com/photos/rjw1/23399315885/,false,true,false,true,September 2016,"https://london.randomness.org.uk/wiki.cgi?Morden_Hall_Bookshop,_SM4_5JD",,,,,,,,,,,,,,,,,,,,,,,,,,,,,,,,,,,,,,,,,,,,,,,,
museum-of-london-docklands-bookshop,Museum of London Docklands Bookshop,,"West India Quay, E14 4AL",,http://www.museumoflondon.org.uk/index.php/museum-london-docklands,,51.5075097888407,-0.0238793298405246,https://www.flickr.com/photos/kake_pugh/4247950011/,true,unknown,false,true,January 2010,https://london.randomness.org.uk/wiki.cgi?Museum_Of_London_Docklands,,,,,,,,,,,,,,,,,,,,,,,,,,,,,,,,,,,,,,,,,,,,,,,,
muswell-hill-bookshop,Muswell Hill Bookshop,,"72 Fortis Green Road, N10 3HN",,http://www.muswellhillbookshop.com/,,51.590096,-0.146041,https://www.flickr.com/photos/kake_pugh/9460767036/,unknown,unknown,false,true,August 2013,,muswellhillbks,,,http://londonist.com/2009/02/biblio-text_muswell_hill_bookshop.php,,,,,,,,,,,,,,,,,,,,,,,,,,,,,,,,,,,,,,,,,,,,
my-back-pages-balham,My Back Pages,"Now closed; was a second-hand bookshop in Balham.  As of April 2014 the premises were vacant and stripped out (pictured).  The owner opened a new bookshop in Earlsfield, called <a href=""http://londonbookshops.org/shops/turn-the-page.html"">Turn The Page</a>, but this itself closed down in mid-2016.","8-10 Station Road, SW12 9SG",,,,51.443283,-0.151899,https://www.flickr.com/photos/rjw1/13971452212/,unknown,unknown,false,false,,,,,,,,,http://www.tiredoflondontiredoflife.com/2012/03/buy-books-at-my-back-pages.html,,,,,,,,,,,,,,,,,,,,,,,,,,,,,,,,,,,,,,,,,
new-beacon-books,New Beacon Books,,"76 Stroud Green Road, N4 3EN",,,,51.568359,-0.109885,https://www.flickr.com/photos/kake_pugh/29501365354/,unknown,unknown,false,true,September 2016,,,,,,,http://londonbooks.tumblr.com/post/148582872151/,,,,,,,,,,,,,,,,,,,,,,,,,,,,,https://inews.co.uk/essentials/culture/books/best-books-black-history-black-british-authors-recommended-uks-first-black-bookshop/,,,,,,,,,,,,,
national-theatre-bookshop-south-bank,National Theatre Bookshop,Playtexts and specialist performing arts titles.,"National Theatre, Upper Ground, South Bank, SE1 9PX",,https://shop.nationaltheatre.org.uk/,0207 452 3456,51.506874,-0.11409762,,,,,true,,,NTBookshop,,,,,http://londonbooks.tumblr.com/post/145799466196/,,,,,,,,,,,,,,,,,,,,,,,,,,,,,,,,,,,,,,,,,,
naval-maritime-books-greenwich,Naval and Maritime Books,,"66 Royal Hill, SE10 8RT",,http://www.navalandmaritimebooks.com/,,51.476498,-0.009634,https://www.flickr.com/photos/kake_pugh/48694255242/,unknown,unknown,false,true,September 2019,,,,,,,http://londonbooks.tumblr.com/post/134650567296/,http://www.tiredoflondontiredoflife.com/2010/05/shop-for-nautical-novels-at-maritime.html,,,,,,,,,,,,,,,,,,,,,,,,,,,,,,,,,,,,,,,,,
new-cross-learning,New Cross Learning,Second-hand bookshop in a community-run space.,"283-285 New Cross Road, SE14 6AS",,https://newxlearning.org/bookshop/,,51.475433,-0.038587198,,unknown,true,,true,,,,,,,,,,,,,,,,,,,,,,,,,,,,,,,,,,,,,,,,,,,,,,,,,,
newham-bookshop,Newham Bookshop,"Previously at 747 Barking Road (<a href=""https://www.flickr.com/photos/kake_pugh/3766346809/"">photo</a>), but moved to number 743 in late 2018.","743 Barking Road, E13 9ER",,http://www.newhambooks.co.uk/,,51.530334,0.037251,,unknown,unknown,false,true,,,NewhamBookshop,,,,,http://londonbooks.tumblr.com/post/112434475486/,,,,,,,,,,,,,,,,,,,,,,,,,,,,,,http://spitalfieldslife.com/2018/04/10/happy-birthday-newham-bookshop/,,,,,,,,,,,,
nicholas-salter-chingford,Nicholas Salter,Antique shop with one room dedicated to books.  Closed by August 2012.,"Chingford Station, Station Road, E4 6AL",,,,51.633121,0.009356,,unknown,unknown,false,false,,,,,,,,,,,,,,,,,,,,,,,,,,,,,,,,,,,,,,,,,,,,,,,,,,
nomad-books-fulham,Nomad Books,,"781 Fulham Road, SW6 5HA",,,,51.476494,-0.203891,,unknown,unknown,false,true,,,NomadBooks,,,,,http://londonbooks.tumblr.com/post/130213493036/,,,,,,,,,,,,,,http://www.yelp.co.uk/biz/nomad-books-london,,,,,,,,,,,,,,,,,,,,,,,,,,,,
notting-hill-books,Notting Hill Books,Now closed.,"132 Palace Gardens Terrace, W8 4RT",,,,51.509075,-0.19387,,unknown,unknown,false,false,,,,,,,,,,,,,,,,,,,,,,,,,,,,,,,,,,,,,,,,,,,,,,,,,,
notting-hill-bookshop,The Notting Hill Bookshop,"This was previously the site of the Travel Bookshop, which closed in 2011 (see <a href=""http://www.thebookseller.com/news/book-warehouse-takes-over-travel-bookshop-site"">The Bookseller article</a> and <a href=""http://londonist.com/2011/08/notting-hills-travel-bookshop-about-to-close.php"">Londonist article</a>).","13 Blenheim Crescent, Notting Hill, W11 2EE",,http://www.thenottinghillbookshop.co.uk/,020 7229 5260,51.515659,-0.205457,,unknown,unknown,false,true,,,,,,,,,,,,,,,,,,,,,,,,,,,,,,,,,,,,,,,,,,,,,,,,,,
offside-books-kilburn,Offside Books,,"92 Willesden Lane, Kilburn, NW6 7TA",,http://www.offsidebooks.com/,,51.540944,-0.20223239,https://www.flickr.com/photos/kake_pugh/16052383778/,true,true,false,true,,,OffSideBooks,,,,,http://londonbooks.tumblr.com/post/123906715931/,,,,,,,,,,,,,,,,,,,,,,,,,,,,,,,,,,,,,,,,,,
old-bookshop-enfield,The Old Bookshop,Open by appointment only.,"36 Gordon Road, EN2 0PZ",,http://www.fjwarnes.co.uk/,,51.660278,-0.082709,,unknown,unknown,false,true,,,,,,,,,,,,,,,,,,,,,,,,,,,,,,,,,,,,,,,,,,,,,,,,,,
old-operating-theatre-bookshops,The Old Operating Theatre Bookshop,Small bookshop attached to the Old Operating Theatre Museum.,"9a St. Thomas's Street, SE1 9RY",,http://oldoperatingtheatre.com/visiting-us/gift-shop,,51.504969,-0.088619784,,true,unknown,false,true,,,,,,,,,,,,,,,,,,,,,,,,,,,,,,,,,,,,,,,,,,,,,,,,,,
open-book-richmond,The Open Book,,"10 King Street, TW9 1ND",,,,51.459888,-0.306823,https://www.flickr.com/photos/kake_pugh/34494453012/,unknown,unknown,false,true,May 2017,,,,,,,http://londonbooks.tumblr.com/post/116801183226/,,,,,,,,,,,,,,http://www.yelp.co.uk/biz/open-book-richmond,,,,,,,,,,,,,,,,,,,,,,,,,,,,
osterley-bookshop,Osterley Bookshop,,"Old Railway Station, 168a Thornbury Road, Osterley, TW7 4QE",,,020 8560 6206,51.48312,-0.348108,https://www.flickr.com/photos/kake_pugh/25123462436/,false,true,false,true,February 2016,https://london.randomness.org.uk/wiki.cgi?Osterley_Bookshop,,,,,,,,,,,,,,,,,,,,,,,,,,,,,,,,,,,,,,,,,,,,,,,,
owl-and-pussycat,The Owl and the Pussycat,Children's books.  Closed down around 2014.,"106 Northfield Avenue, W13 9RT",,,,51.502945,-0.316941,https://www.flickr.com/photos/kake_pugh/3668178596/,unknown,unknown,false,false,June 2009,,,,,,,,,,,,,,,,,,,,,,,,,,,,,,,,,,,,,,,,,,,,,,,,,
owl-bookshop,Owl Bookshop,,"209 Kentish Town Road, NW5 2JU",,,,51.547215,-0.1419,https://www.flickr.com/photos/kake_pugh/8200332731/,unknown,unknown,false,true,October 2017,,OwlBookshop,,,,,,,,,,,,,,,,,,,,,,,,,,,,,,,,,,,,,,,,,,,,,,,
oxfam-books-and-music-kentish-town,Oxfam Books and Music (Kentish Town Road),,"166 Kentish Town Road, NW5 2AG.",,,,51.547001,-0.14147,https://www.flickr.com/photos/kake_pugh/8200329747/,unknown,true,true,true,November 2012,,,,,,,,,,,,,,,,,,,,,,,,,,,,,,,,,,,,,,,,,,,,,,,,,
oxfam-books-and-music-crouch-end,Oxfam Books and Music (Crouch End),,"22 Park Road, Crouch End, London, N8 8TD",,,020 8347 7942,51.58077,-0.12467,https://www.flickr.com/photos/kake_pugh/9459072973/,unknown,true,true,true,August 2013,,,,,,,,,,,,,,,,,,,,,,,,,,,,,,,,,,,,,,,,,,,,,,,,,
oxfam-books-and-music-gloucester-road,Oxfam Books and Music (Gloucester Road),,"46 Gloucester Road, SW7 4QT",,,,51.498123,-0.183849,https://www.flickr.com/photos/kake_pugh/3735230610/,unknown,true,true,true,July 2009,,,,,,,,,,,,,,,,,,,,,,,,,,,,,,,,,,,,,,,,,,,,,,,,,
oxfam-books-and-music-islington,Oxfam Books and Music (Islington),,"48 Upper Street, Islington, N1 0PN",,http://www.oxfam.org.uk/shop/local-shops/oxfam-books-music-islington,,51.535108,-0.10455479,https://www.flickr.com/photos/kake_pugh/26446250952/,unknown,true,true,true,April 2016,,OxfamBooksN1,,,,,,,,,,,,,,,,,,,,,,,,,,,,,,,,,,,,,,,,,,,,,,,
oxfam-books-and-music-marylebone,Oxfam Books and Music (Marylebone),,"91 Marylebone High Street, W1U 4RB",,http://www.oxfammarylebone.co.uk/,,51.520054,-0.15192,,unknown,unknown,true,true,,,,,,,,,,,,,,,,,,,,,,,,,,,,,,,,,,,,,,,,,,,,,,,,,,
oxfam-bookshop-ealing,Oxfam Bookshop (Ealing),,"1 The Green, W5 5DA",,,,51.51104,-0.305192,https://www.flickr.com/photos/kake_pugh/16683239512/,unknown,unknown,true,true,February 2015,,,,,,,,,,,,,,,,,,,,,,,,,,,,,,,,,,,,,,,,,,,,,,,,,
oxfam-bookshop-bloomsbury,Oxfam Bookshop (Bloomsbury),,"12 Bloomsbury Street, WC1B 3QA",,http://oxfambloomsburybooks.wordpress.com/,,51.517605,-0.127394,https://www.flickr.com/photos/kake_pugh/45135846401/,unknown,unknown,true,true,October 2018,,,,,,,,,,,,,,,,,,,,,,,,,,,,,,,,,,,,,,,,,,,,,,,,,
oxfam-bookshop-portobello-road,Oxfam Bookshop (Portobello Road),,"170 Portobello Road, W11 2EB",,,,51.515553,-0.204642,,unknown,unknown,true,true,,,,,,,,,,,,,,,,,,,,,,,,,,,,,,,,,,,,,,,,,,,,,,,,,,
oxfam-bookshop-turnham-green,Oxfam Bookshop (Turnham Green),,"90 Turnham Green Terrace, W4 1QN",,,,51.494476,-0.255228,,unknown,unknown,true,true,,,,,,,,,,,,,,,,,,,,,,,,,,,,,,,,,,,,,,,,,,,,,,,,,,
oxfam-bookshop-westminster,Oxfam Bookshop (Westminster),,"34 Strutton Ground, SW1P 2HR",,,,51.496887,-0.133885,,unknown,unknown,true,true,,,,,,,,,,,,,,,,,,,,,,,,,,,,,,,,,,,,,,,,,,,,,,,,,,
oxfam-bookshop-highgate,Oxfam Bookshop (Highgate),,"47 Highgate High Street, N6 5JX",,,,51.570934,-0.149024,,unknown,unknown,true,true,,,,,,,,,,,,,,,,,,,,,,,,,,,,,,,,,,,,,,,,,,,,,,,,,,
oxfam-bookshop-kingston,Oxfam Bookshop (Kingston),,"Old London Road, KT2 6QF",,,,51.410625,-0.299013,,unknown,unknown,true,true,,,,,,,,,,,,,,,,,,,,,,,,,,,,,,,,,,,,,,,,,,,,,,,,,,
oxfam-bookshop-epsom,Oxfam Bookshop (Epsom),,"41 Upper High Street, KT17 4RA",,,,51.334568,-0.261247,,unknown,unknown,true,true,,,,,,,,,,,,,,,,,,,,,,,,,,,,,,,,,,,,,,,,,,,,,,,,,,
oxfam-bookshop-blackheath,Oxfam Bookshop (Blackheath),,"68 Tranquil Vale, SE3 0BN",,,,51.467121,0.00706,,unknown,unknown,true,true,,,,,,,,,,,,,,,,,,,,,,,,,,,,,,,,,,,,,,,,,,,,,,,,,,
oxfam-bookshop-muswell-hill,Oxfam Bookshop (Muswell Hill),,"378 Muswell Hill Broadway, N10 1DJ",,http://www.oxfam.org.uk/shop/local-shops/oxfam-bookshop-muswell-hill,0208 8835171,51.5915,-0.14255,https://www.flickr.com/photos/kake_pugh/9460759018/,unknown,unknown,true,true,August 2013,,,,,,,,,,,,,,,,,,,,,,,,,,,,,,,,,,,,,,,,,,,,,,,,,
oxfam-bookshop-greenwich,Oxfam Bookshop (Greenwich),,"2 College Approach, Greenwich, SE10 9HY",,http://www.oxfam.org.uk/shop/local-shops/oxfam-bookshop-greenwich,020 8305 1656,51.481775,-0.009744063,https://www.flickr.com/photos/kake_pugh/13143992413/,unknown,true,true,true,March 2014,,,,,,,,,,,,,,,,,,,,,,,,,,,,,,,,,,,,,,,,,,,,,,,,,
pages-of-cheshire-street,Pages of Cheshire Street,"Sister shop to <a href=""pages-of-hackney.html"">Pages of Hackney</a>; this one stocks books by female, trans, and gender diverse authors.  The premises were previously occupied by a French and English bookshop called Caravanserail, which <a href=""https://twitter.com/_caravanserail_/status/1115657927958855680"">closed down</a> in April 2019 (see <a href=""http://spitalfieldslife.com/2018/03/22/at-caravanserail/"">Spitalfields Life article</a>).","5 Cheshire Street, Shoreditch, E2 6ED",,https://pagescheshirestreet.co.uk/,020 7059 0273,51.523541,-0.070959717,https://www.flickr.com/photos/kake_pugh/48451564466/,,,,true,August 2019,,,,,,,,,,,,,,,,,,,,,,,,,,,,,,,,,,,,,,,,,,,,,,,,,
pages-of-fun-westminster,Pages of Fun,,"2 Victoria Arcade, SW1E 5ND",,,,51.496319,-0.143927,,unknown,unknown,false,true,,,,,,,,,,,,,,,,,,,,,,,,,,,,,,,,,,,,,,,,,,,,,,,,,,
pages-of-hackney,Pages of Hackney,,"70 Lower Clapton Road, E5 0RN",,http://www.pagesofhackney.co.uk/,,51.55262,-0.052571,https://www.flickr.com/photos/55935853@N00/3991430102/,unknown,unknown,false,true,,,pagesofhackney,,,,,http://londonbooks.tumblr.com/post/113065432846/,http://www.tiredoflondontiredoflife.com/2010/10/buy-books-at-pages-of-hackney.html,,,,,,,,,,,,,,,,,,,,,,,,,,,,,,,,,,,,,,,,,
paperback-coffee-and-tea-ealing,Paperback Coffee And Tea,"Bookshop and coffee/tea shop, closed down by January 2019.","153 South Ealing Road, W5 4QP",,,,51.498555,-0.30575533,,,,,false,,,,,,,,http://londonbooks.tumblr.com/post/153168905950/,,,,,,,,,,,,,,,,,,,,,,,,,,,,,,,,,,,,,,,,,,
paper-and-cup-bow,Paper & Cup (Bow),"Second branch of the coffee shop and book shop run by the <a href=""http://www.sct.org.uk/"">Spitalfields Crypt Trust</a>.  This one opened in early 2013.  The <a href=""http://londonbookshops.org/shops/paper-and-cup-shoreditch.html"">original branch</a> is in Shoreditch.","83 St Paul's Way, E3 4AJ",,http://www.paperandcup.co.uk/,,51.518015,-0.026976,https://www.flickr.com/photos/kake_pugh/31334166375/,unknown,unknown,unknown,true,November 2016,,PaperAndCup,,,,,,,,,,,,,,,,,,,,,,,,,,,,,,,,,,,,,,,,,,,,,,,
paper-and-cup-shoreditch,Paper & Cup (Shoreditch),"Coffee shop and book shop run by the <a href=""http://www.sct.org.uk/"">Spitalfields Crypt Trust</a>.  There's also <a href=""http://londonbookshops.org/shops/paper-and-cup-bow.html"">another branch</a> in Bow.","18 Calvert Avenue, E2 7JP",,http://www.paperandcup.co.uk/,,51.526171,-0.0763295,,unknown,unknown,unknown,true,July 2016,,PaperAndCup,,,,,,,,,,,,,,,,,,,,,,,,,,,,,,,,,,,,,,,,,,,,,,,
pathfinder-books,Pathfinder Books,"Now closed.  Despite the address, the entrance was on Brick Lane.  This was a volunteer-run bookshop with no set opening hours.","First Floor, 120 Bethnal Green Road, E2 6DG",,,,51.52483,-0.071588,https://www.flickr.com/photos/kake_pugh/5606612947/,unknown,unknown,false,false,October 2012,"https://london.randomness.org.uk/wiki.cgi?Pathfinder_Books,_E2_6DG",,,,,,,,,,,,,,,,,,,,,,,,,,,,,,,,,,,,,,,,,,,,,,,,
persephone-bookshop-bloomsbury,Persephone Bookshop (Bloomsbury),,"59 Lamb's Conduit Street, WC1N 3NB",,http://www.persephonebooks.co.uk/,,51.521938,-0.11876,https://www.flickr.com/photos/kake_pugh/2849499717/,unknown,unknown,false,true,December 2012,,,,,http://londonist.com/2009/02/persephone.php,,http://londonbooks.tumblr.com/post/125692283744/,,,http://web.archive.org/web/20120807093546/http://kimbofo.typepad.com/readingmatters/2007/07/bookish-treats.html,,,,,,,,,,,,,,,,,,,,,,,,,,,,,,,,,,,,,,,
persephone-bookshop-kensington,Persephone Bookshop (Kensington),,"109 Kensington Church Street, W8 7LN",,http://www.persephonebooks.co.uk/,,51.506607,-0.194771,,unknown,unknown,false,true,,,,,,,,,,,,,,,,,,,,,,,,,,,,,,,,,,,,,,,http://foodiefoodie.wordpress.com/2008/08/25/good-things-in-england/,,,,,,,,,,,
peter-ellis-cecil-court,Peter Ellis,"Modern first editions and general antiquarian stock.  Located on <a href=""http://cecilcourt.co.uk/"">Cecil Court</a>, a small lane running between Charing Cross Road and St Martin's Lane with several other specialist/rare/antiquarian bookshops.","18 Cecil Court, Covent Garden, WC2N 4HE",,http://www.peterellisbooks.com/,020 7836 8880,51.510744,-0.127945,https://www.flickr.com/photos/kake_pugh/30004558214/,unknown,true,false,true,October 2016,,,,,,,,,,,,,,,,,,,,,,,,,,,,,,,,,,,,,,,,,,,,,,,,,
peter-harrington-chelsea,Peter Harrington (Chelsea),"Rare and antiquarian books, first editions, etc.  Also has <a href=""peter-harrington-mayfair.html"">a branch in Mayfair</a>.","100 Fulham Road, Chelsea, SW3 6HS",,http://www.peterharrington.co.uk/,,51.489669,-0.17529,,unknown,true,false,true,,,,,,,,,,,,,,,,,,,,,,,,,,,,,,,,,,,,,,,,,,,,,,,,,,
peter-harrington-mayfair,Peter Harrington (Mayfair),"Rare and antiquarian books, first editions, etc.  Also has <a href=""peter-harrington-chelsea.html"">a branch in Chelsea</a>.","43 Dover Street, Mayfair, W1S 4FF",,http://www.peterharrington.co.uk/,,51.50802,-0.14189114,,unknown,true,false,true,,,,,,,,,,,,,,,,,,,,,,,,,,,,,,,,,,,,,,,,,,,,,,,,,,
phlox-books-leyton,Phlox Books,Opened in May 2017.,"159 Francis Road, Leyton, E10 6NT",,http://phloxbooks.com/,,51.563806,-0.0056335777,,,,,true,May 2017,,PhloxBooks,,https://www.leytonstoner.london/2017/05/11/everything-need-know-phlox-books-francis-road/,,,,,,,,,,,,,,,,,,,,,,,,,,,,,,,,,,,,,,,,,,,,,
photo-books-international,Photo Books International,,"99 Judd Street, WC1H 9NE",,http://www.pbi-books.com/,,51.527557,-0.125034,https://www.flickr.com/photos/kake_pugh/4620238904/,unknown,unknown,false,true,December 2012,,,,,,,,,,,,,,,,,,,,,,,,,,,,,,,,,,,,,,,,,,,,,,,,,
pickled-pepper-books-crouch-end,Pickled Pepper Books,Children's bookshop.,"10 Middle Lane, Crouch End, N8 8PL",,https://pickledpepperbooks.co.uk/,020 3632 0823,51.58093,-0.12354349,,,,,true,,,PickledBooks,,,,,http://londonbooks.tumblr.com/post/150917035386/,,,,,,,,,,,,,,,,,,,,,,,,,,,,,,,,,,,,,,,,,,
pitshanger-bookshop-ealing,Pitshanger Bookshop,,"141 Pitshanger Lane, W5 1RH",,http://www.pitshangerbooks.co.uk/,,51.525742,-0.31472,,unknown,unknown,false,true,,,,,,,,http://londonbooks.tumblr.com/post/149923062096/,,,,,,,,,,,,,,,,,,,,,,,,,,,,,,,,,,,,,,,,,,
pleasures-of-past-times-cecil-court,Pleasures Of Past Times,"Books relating to the performing arts, including magic/conjuring.  Located on <a href=""http://cecilcourt.co.uk/"">Cecil Court</a>, a small lane running between Charing Cross Road and St Martin's Lane with several other specialist/rare/antiquarian bookshops.","11 Cecil Court, Covent Garden, WC2N 4EZ",,,020 7836 1142,51.510701,-0.127602,https://www.flickr.com/photos/kake_pugh/30004561204/,unknown,true,false,true,October 2016,,,,,,,,,,,,,,,,,,,,,,,,,,,,,,,,,,,,,,,,,,,,,,,,,
primrose-hill-books,Primrose Hill Books,,"134 Regent's Park Road, NW1 8XL",,http://www.primrosehillbooks.com/,,51.540691,-0.157263,https://flickr.com/photos/kake_pugh/2870489170/,true,true,false,true,October 2012,https://london.randomness.org.uk/wiki.cgi?Primrose_Hill_Books,PHBookshop,,,,,,,,,,,,,,,,,,,,,,,,,,,,,,,,,,,,,,,,,,,,,,,
quaker-centre-bookshop-euston,Quaker Centre Bookshop,Books relating to the goals and values of the Quaker movement.,"Friends House, 173 Euston Road, NW1 2BJ",,http://www.friendshouse.co.uk/,,51.526615,-0.13223746,,true,unknown,false,true,November 2015,"https://london.randomness.org.uk/wiki.cgi?Quaker_Cafe,_NW1_2BJ",,,,,,,,,,,,,,,,,,,,,,,,,,,,,,,,,,,,,,,,,,,,,,,,
queens-park-books,Queens Park Books,,"87 Salusbury Road, NW6 6NH",,http://queensparkbooks.co.uk/,,51.535824,-0.205318,https://www.flickr.com/photos/kake_pugh/9377409826/,true,unknown,false,true,July 2013,,QPBooks,,,,,http://londonbooks.tumblr.com/post/118052636641/,,,,,,,,,,,,,,,,,,,,,,,,,,,,,,,,,,,,,,,,,,
quinto-charing-cross-road,Quinto,"It used to be at 48A Charing Cross Road (<a href=""http://www.flickr.com/photos/kake_pugh/2391466584/"">photo</a>), but moved to number 72 on 23 March 2010.  The building also houses a branch of <a href=""http://www.francisedwards.co.uk/"">Francis Edwards</a>.","72 Charing Cross Road, WC2H 0BB",,http://quintobookshop.co.uk/,,51.512608,-0.128671,,unknown,unknown,false,true,,,QuintoBookshop,,,,,,,,,,,,,,,,,,,,,,,,,,,,,,,,,,,,,,,,,,,,,,,
r-a-gekoski,R A Gekoski,Rare books and manuscripts.,"15a Bloomsbury Square, WC1A 2LP",,http://www.gekoski.com/,,51.518623,-0.123403,,unknown,unknown,false,true,,,,,,,,,,,,,,,,,,,,,,,,,,,,,,,,,,,,,,,,,,,,,,,,,,
red-cross-palmers-green,Red Cross Bookshop,,"385 Green Lanes, Palmers Green, N13 4JG",,http://www.redcross.org.uk/Where-we-work/In-the-UK/Southern-England/London/LocalServices/Shop?dpid=e7206e66-fd85-4f3c-93ff-431174225402,,51.619625,-0.10709,,unknown,true,true,true,,,,,,,,,,,,,,,,,,,,,,http://www.yelp.co.uk/biz/british-red-cross-bookshop-london,,,,,,,,,,,,,,,,,,,,,,,,,,,,
regency-bookshop,Regency Bookshop,Good selection of children's books.,"45 Victoria Road, KT6 4JL",,,020 8399 2188,51.391468,-0.308819,https://www.flickr.com/photos/kake_pugh/36191054611/,true,unknown,false,true,July 2017,,,,,,,,,,,,,,,,,,,,,,,,,,,,,,,,,,,,,,,,,,,,,,,,,
review-books-peckham,Review Books,,"131 Bellenden Road, SE15 4QY",,http://www.reviewbookshop.co.uk/,,51.467964,-0.072248,https://flickr.com/photos/55935853@N00/2879797042/,unknown,unknown,false,true,,,reviewbookshop,,,http://londonist.com/2009/05/biblio-text_review_bookshop.php,,,http://www.tiredoflondontiredoflife.com/2013/10/shop-at-review-bookshop.html,,,,,,,,,,,,http://peckhampeculiar.tumblr.com/post/103539594184/buy-the-book-part-2-review-bookshop,,,,,,,,,,,,,,,,,,,,,,,,,,,,,
ripley-and-lambert-dalston,Ripley & Lambert,Specialist film bookshop and cafe.,"542 Kingsland Road, Dalston, E8 4AH",,https://www.ripleyandlambert.com/,,51.54476,-0.075832352,,,,,true,,,RipAndLamb,,,,,,,,,,,,,,,,,https://www.hackneycitizen.co.uk/2019/10/14/ripley-and-lambert-dalston-cafe-film/,,,,,,,,,,,,,,,,,,,,,,,,,,,,,,
ripping-yarn,Ripping Yarns,"Secondhand bookshop specialising in collectable children's and illustrated books.  It closed down on 20 September 2015 due to an unexpected rent increase, but will continue to operate online.","355 Archway Road, N6 4EJ",,http://www.rippingyarns.co.uk/,,51.577885,-0.148144,https://www.flickr.com/photos/bagelmouse/4700001855/,false,true,false,false,,,,,,,,,,,,,,,,,,,,,,,,,,,,,,,,,,,,,,,,,,,,,,,,,,
riverside-bookshop,Riverside Bookshop,"Independent bookshop near London Bridge Station.  Previously in Hay's Galleria (<a href=""http://flickr.com/photos/kake_pugh/2474855655/"">photo</a>), it <a href=""http://www.london-se1.co.uk/news/view/8039"">moved to Tooley Street</a> around the start of 2015.","Unit 15, Hay's Galleria, 57 Tooley Street, SE1 2QN",,https://theriversideway.wordpress.com/theriversidebookshop/,020 7378 1824,51.505063,-0.083914787,https://www.flickr.com/photos/kake_pugh/46826022935/,true,false,false,true,April 2019,"https://london.randomness.org.uk/wiki.cgi?Riverside_Bookshop,_SE1_2QN",,,,,,,,,,https://theriversideway.wordpress.com/,,,,,,,,,,,,,,,,,,,,,,,,,,,,,,,,,,,,,,
robert-frew-south-kensington,Robert Frew Ltd,"Antiquarian books, maps, and prints.","8 Thurloe Place, South Kensington, SW7 2RX",,http://www.robertfrew.com/,020 7590 6650,51.496245,-0.16992827,,false,true,false,true,,,,,,,,http://londonbooks.tumblr.com/post/132325590776/,,,,,,,,,,,,,,,,,,,,,,,,,,,,,,,,,,,,,,,,,,
round-table-books-brixton,Round Table Books,"Children's bookshop dedicated to inclusive representation.  It <a href=""https://twitter.com/_KnightsOf/status/1123839744092311552"">opened in May 2019</a>.","97 Granville Arcade, Brixton Village, SW9 8SP",,http://www.roundtablebooks.co.uk/,,51.462203,-0.11149903,https://www.flickr.com/photos/kake_pugh/47936171097/,true,false,false,true,May 2019,"https://london.randomness.org.uk/wiki.cgi?Round_Table_Books,_SW9_8SP",BooksRound,,,,,,,,,,,,,,,,,,,,,,,,,,,,,,,,,,,,,,,,,,,,,,,
rye-books-east-dulwich,Rye Books,Previously at 45 Upland Road.,"47 North Cross Road, East Dulwich, SE22 9ET",,,,51.4576,-0.073630258,,true,true,false,true,,,,,,,,http://londonbooks.tumblr.com/post/172953494441/,,,,,,,,,,,,,http://peckhampeculiar.tumblr.com/post/103794485889/buy-the-book-part-3-rye-books,,,,,,,,,,,,,,,,,,,http://web.archive.org/web/20120609043749/http://southeastcentral.co.uk/threads/rye-books-new-bookstore-at-45-upland-road-east-dulwich-se22-9ef.1491/,,,,,,,,,,
school-of-life-bloomsbury,School Of Life,,"70 Marchmont Street, WC1N 1AB.",,http://www.theschooloflife.com/,,51.525539,-0.125248,https://www.flickr.com/photos/rjw1/8269889752/,unknown,unknown,false,true,December 2012,,,,,,,,,,,,,,,,,,,,,,,,,,,,,,,,,,,,,,,,,,,,,,,,,
second-shelf-soho,Second Shelf,"Focuses on rare books, first editions, and manuscripts by women.","14 Smith's Court, Soho, W1D 7DQ",,https://thesecondshelf.com/,,51.511545,-0.13497774,,unknown,true,,true,,,SecondShelfBks,,,,,,,,,,,,,,https://www.bluestockingbooks.co.uk/single-post/2019/04/05/Secret-2-The-new-kid-on-the-block,,,,,,,,,,,,,,,,,,,,,,,,,,,,,,,,,
shalimar-kennington,Shalimar,"Bookshop and distributor specialising in African, South Asian, and Caribbean books, including children's books.","38 Kennington Lane, SE11 4LS",,http://www.indianbooksuk.com/,,51.491043,-0.10506937,,,,,true,,,,,,,,,,,,,,,,,,,,,,,,,,,,,,,,,,,,,,,,,http://kenningtonrunoff.com/shalimar/,,,,,,,,,
sheen-bookshop,Sheen Bookshop,"Run by the same people as the <a href=""http://londonbookshops.org/shops/barnes-bookshop.html"">Barnes Bookshop</a> and the <a href=""http://londonbookshops.org/shops/kew-bookshop.html"">Kew Bookshop</a>.","375 Upper Richmond Road West, SW14 7NX",,,,51.46447,-0.26731525,,unknown,unknown,false,true,July 2013,,SheenBookshop,,,,,http://londonbooks.tumblr.com/post/137942973577/,,,,,,,,,,,,,,,,,,,,,,,,,,,,,,,,,,,,,,,,,,
shepherds-victoria,Shepherds (Victoria),Specialises in fine bindings.,"76 Rochester Row, SW1P 1JU",,http://www.bookbinding.co.uk/Shepherds%20contacts.htm,,51.494105,-0.13695051,,unknown,true,false,true,,,,,,,,,,,,,,,,,,,,,,,,,,,,,,,,,,,,,,,,,,,,,,,,,,
ship-of-adventures-dalston,Ship of Adventures,"Bookshop, gift shop, cafe, and events space run by The Hackney Pirates youth learning charity.","138 Kingsland High Street, Dalston, E8 2NS",,http://www.hackneypirates.org/,,51.550285,-0.075002208,https://www.flickr.com/photos/kake_pugh/28804008272/,,,,true,August 2016,,ShipOAdventures,,,,,http://londonbooks.tumblr.com/post/145094918241/,,,,,,,,,,,,,,,,,,,,,,,,,,,,,,,,,,,,,,,,,,
skoob-bloomsbury,Skoob,,"66 The Brunswick Centre, Marchmont Street, WC1N 1AE",,http://www.skoob.com/,,51.524128,-0.123903,https://www.flickr.com/photos/rjw1/8269893404/,unknown,unknown,false,true,December 2012,,,,,,,http://londonbooks.tumblr.com/post/110187297861/skoob-books-wc1n-id-heard-good-things-but-i-was,http://www.tiredoflondontiredoflife.com/2011/06/buy-books-at-skoob.html,,,,,,,,,,,,,,,,,,,,,,,,,,,,,,,,,,,,,,,,,
sims-reed,Sims Reed,,"43a Duke Street, SW1Y 6DD",,http://books.simsreed.com/,,51.507106,-0.1376448,https://www.flickr.com/photos/rjw1/14226889399/,unknown,unknown,false,true,June 2014,,,,,,,,,,,,,,,,,,,,,,,,,,,,,,,,,,,,,,,,,,,,,,,,,
soas-bookshop,SOAS Bookshop,"The bookshop of the School of Oriental and African Studies in Bloomsbury (though it's open to the public), run by Arthur Probsthain Oriental and African Bookshop.","Thornhaugh Street, WC1H 0XG",,http://www.soas.ac.uk/visitors/bookshop/,,51.522377,-0.129304,https://www.flickr.com/photos/kake_pugh/4684461261/,unknown,unknown,false,true,November 2009,,,,,,,,,,,,,,,,,,,,,,,,,,,,,,,,,,,,,,,,,,,,,,,,,
society-club,The Society Club,"<a href=""http://westendextra.com/article/chapter-closes-on-the-society-club-in-soho"">Closed down in mid-2017</a>; was a bookshop, gallery, teashop, and bar.","12 Ingestre Place, W1F 0JF",,,,51.513108,-0.13563757,https://www.flickr.com/photos/kake_pugh/26265698930/,unknown,true,false,false,April 2016,,,,,,,,,,,,,,,,,,,,,,,,,,,,,,,,,,,,,,,,,http://howtospendit.ft.com/personal-luxuries/6785-the-society-club,http://web.archive.org/web/20160927192137/http://thefoodiebugle.com/article/eating-out/the-society-club,http://web.archive.org/web/20170415141203/http://www.lauraashley.com/blog/uncategorized/the-society-club/,http://web.archive.org/web/20131125163524/http://thepandorian.com:80/2012/09/the-society-club/,,,,,
soho-original-books-charing-cross-road,Soho Original Books,"Closed down by March 2017, according to Google Street View.","121 Charing Cross Road, Soho, WC2H 0EW",,,,51.514917,-0.13001834,https://www.flickr.com/photos/kake_pugh/16536674297/,unknown,unknown,false,false,March 2015,,,,,,,,,,,,,,,,,,,,,,,,,,,,,,,,,,,,,,,,,,,,,,,,,
sohos-original-bookshop-liverpool-street,Soho's Original Bookshop,,"124 Middlesex Street, E1 7HY",,,,51.518185,-0.079136,https://www.flickr.com/photos/kake_pugh/3750386544/,unknown,unknown,false,true,July 2009,,,,,,,,,,,,,,,,,,,,,http://www.yelp.co.uk/biz/soho-original-bookshop-london,,,,,,,,,,,,,,,,,,,,,,,,,,,,
sokol-books-chelsea,Sokol Books,English and European rare books.,"239a Fulham Road, Chelsea, SW3 6HY",,http://sokol.co.uk/,020 7351 5119,51.489425,-0.17531146,,unknown,true,,true,,,,,,,,,,,,,,,,,,,,,,,,,,,,,,,,,,,,,,,,,,,,,,,,,,
sophie-schneideman-rare-books,Sophie Schneideman Rare Books,,"331 Portobello Road, W10 5SA",,http://www.ssrbooks.com/,,51.521423,-0.210494,,unknown,unknown,false,true,,,,,,,,,,,,,,,,,,,,,,,,,,,,,,,,,,,,,,,,,,,,,,,,,,
sotherans-sackville-street,Sotheran's of Sackville Street,Antiquarian and modern first editions.,"2 Sackville Street, Mayfair, W1S 3DP",,https://www.sotherans.co.uk/,,51.509156,-0.137795,,unknown,true,false,true,,,,,,,,http://londonbooks.tumblr.com/post/142564061411/,,,,,,,,,,,,,,,,,,,,,,,,,,,,,,,,,,,,,,,,,,
south-kensington-books,South Kensington Books,Previously Bookthrift.,"22 Thurloe Street, SW7 2LT",,http://www.kensingtonbooks.co.uk/,020 7589 2916,51.494305,-0.173829,https://www.flickr.com/photos/kake_pugh/26919562202/,unknown,unknown,false,true,May 2016,,,,,,,http://londonbooks.tumblr.com/post/101948475126/south-kensington-books-sw7-righteous-emporium-of,,,,,,,,,,,,,,,,,,,,,,,,,,,,,,,,,,,,,,,,,,
spink-and-sons-southampton-row,Spink and Sons,"Basically a coin dealer, but they also sell books about coins and stuff.","69 Southampton Row, WC1B 4ET",,https://www.spink.com/,,51.520294,-0.12292,https://www.flickr.com/photos/kake_pugh/8278086074/,unknown,unknown,false,true,December 2012,,,,,,,,,,,,,,,,,,,,,,,,,,,,,,,,,,,,,,,,,,,,,,,,,
stanfords-covent-garden,Stanfords,"Famous map shop.  Previously at 12-14 Long Acre (<a href=""https://flickr.com/photos/55935853@N00/3229310783/"">photo</a>) but moved to Mercer Walk in early 2019.","7 Mercer Walk, Covent Garden, WC2H 9FA",,http://www.stanfords.co.uk/,,51.513076,-0.12547736,,unknown,unknown,false,true,January 2019,"https://london.randomness.org.uk/wiki.cgi?Stanfords,_Covent_Garden",,,,,,,,,,,,,,,,,,,,,,,,,,,,,,,,,,,,,,,,,,,,,,,,
stephen-foster-bookshop,Stephen Foster Bookshop,,"95 Bell Street, NW1 6TL.",,http://www.95bellstreet.com/,,51.52219,-0.165696,https://www.flickr.com/photos/kake_pugh/3685320785/,unknown,unknown,false,true,July 2009,,,,,,,http://londonbooks.tumblr.com/post/117416231601/,,,,,,,,,,,,,,,,,,,,,,,,,,,,,,,,,,,,,,,,,,
stephen-poole-fine-books-cecil-court,Stephen Poole Fine Books,"Specialist in modern first editions.  Located on <a href=""http://cecilcourt.co.uk/"">Cecil Court</a>, a small lane running between Charing Cross Road and St Martin's Lane with several other specialist/rare/antiquarian bookshops.","10 Cecil Court, Covent Garden, WC2N 4HE",,,020 7836 0999,51.510749,-0.127703,https://www.flickr.com/photos/kake_pugh/30519769202/,unknown,unknown,false,true,,,,,,,,http://londonbooks.tumblr.com/post/119937790910/,,,,,,,,,,,,,,,,,,,,,,,,,,,,,,,,,,,,,,,,,,
stoke-newington-bargain-bookshop,Stoke Newington Bargain Bookshop,Remaindered and discount books from the people behind the Stoke Newington Bookshop at number 159.,"153 Stoke Newington High Street, N16 0NY",,http://www.stokenewingtonbookshop.co.uk/,,51.561012,-0.074179,,unknown,unknown,false,true,December 2012,,,,,,,,,,,,,,,,,,,,,,,,,,,,,,,,,,,,,,,,,,,,,,,,,
stoke-newington-bookshop,Stoke Newington Bookshop,,"159 Stoke Newington High Street, N16 0NY",,http://www.stokenewingtonbookshop.co.uk/,,51.561306,-0.074222,https://flickr.com/photos/55935853@N00/2980818542/,unknown,unknown,false,true,December 2012,,StokeyBookshop,,,http://londonist.com/2009/10/biblio-text_stoke_newington_booksho.php,,http://londonbooks.tumblr.com/post/127379603991/,,,,,,,,,,,,,,,,,,,,,,,,,,,,,,,,,,,,,,,,,,
swan-books-upminster,Swan Books,"After eight decades of trading, Swan Books <a href=""https://twitter.com/SwanBooks/status/1218307375502893057"">closed down for good</a> in January 2020.","27 Corbets Tey Road, RM14 2AR",,,,51.554955,0.24878,https://www.flickr.com/photos/kake_pugh/3638325988/,true,false,false,false,September 2017,https://london.randomness.org.uk/wiki.cgi?Swan_Books,,,,,,,,,,,,,,,,,,,,,,,,,,,,,,,,,,,,,,,,,,,,,,,,
swedenborg-society-bookshop,Swedenborg Society Bookshop,,"20-21 Bloomsbury Way, WC1A 2TH",,http://www.swedenborg.org.uk/,,51.518066,-0.123103,https://www.flickr.com/photos/rjw1/8513109700/,unknown,unknown,false,true,February 2013,,,,,,,,,,,,,,,,,,,,,,,,,,,,,,,,,,,,,,,,,,,,,,,,,
tales-on-moon-lane,Tales on Moon Lane,Children's books.,"25 Half Moon Lane, Herne Hill, SE24 9JU",,http://talesonmoonlane.co.uk/,,51.453001,-0.099868968,https://www.flickr.com/photos/kake_pugh/29073848892/,unknown,unknown,false,true,August 2016,,talesonmoonlane,,,,,http://londonbooks.tumblr.com/post/131043079586/,,,,,,,,,,,,,,,,,,,,,,,,,,,,,,,,,,,,,,,,,,
taschen,Taschen,,"12 Duke Of York Square, SW3 4LY",,http://www.taschen.com/pages/en/stores/19915.store_london.1.htm,,51.491451,-0.1594045,,unknown,unknown,false,true,,,,,,,,,,,,,,,,,,,,,,,,,,,,,,,,,,,,,,,,,,,,,,,,,,
tate-modern-bookshop,Tate Modern Bookshop,,"Bankside, SE1 9TG",,https://shop.tate.org.uk/visitourshops.html,,51.5077055553573,-0.0993807479910569,,true,unknown,false,true,,,,,,,,,,,,,,,,,,,,,,,,,,,,,,,,,,,,,,,,,,,,,,,,,,
tenderbooks-cecil-court,Tenderbooks,"Art bookshop located on <a href=""http://cecilcourt.co.uk/"">Cecil Court</a>, a small lane running between Charing Cross Road and St Martin's Lane with several other specialist/rare/antiquarian bookshops.","6 Cecil Court, Covent Garden, WC2N 4HE",,http://tenderbooks.co.uk/,020 7379 9464,51.510752,-0.127485,https://www.flickr.com/photos/kake_pugh/30004559434/,,,,true,October 2016,,,,,,,http://londonbooks.tumblr.com/post/150252714005/,,,,,,,,,,,,,,,,,,,,,,,,,,,,,,,,,,,,,,,,,,
this-shop-rocks,This Shop Rocks,Closed down by August 2019.  This was a second-hand and vintage shop with a second-hand bookshop in the basement.,"131 Brick Lane, E1 6SE",,,,51.523689,-0.071484491,https://www.flickr.com/photos/kake_pugh/9977936895/,false,true,false,false,September 2013,,,,,,,,,,,,,,,,,,,,,,,,,,,,,,,,,,,,,,,,,,,,,,,,,
tindley-and-everett-cecil-court,Tindley and Everett,"Specialist in 20th century literature.  Located on <a href=""http://cecilcourt.co.uk/"">Cecil Court</a>, a small lane running between Charing Cross Road and St Martin's Lane with several other specialist/rare/antiquarian bookshops.","4 Cecil Court, Covent Garden, WC2N 4HE",,,,51.510752,-0.127362,https://www.flickr.com/photos/kake_pugh/30519770152/,,,,true,October 2016,,,,,,,http://londonbooks.tumblr.com/post/151231035166/,,,,,,,,,,,,,,,,,,,,,,,,,,,,,,,,,,,,,,,,,,
ti-pi-tin-stoke-newington,Ti Pi Tin,Independently- and self-published artists' books and zines.,"47 Stoke Newington High Street, N16 8EL",,http://www.tipitin.com/,,51.558527,-0.074460402,,,,,true,,,tipitinbooks,,,,,http://londonbooks.tumblr.com/post/145447149806/,,,,,,,,,,,,,,,,,,,,,,,,,,,,,,,,,,,,,,,,,,
travelling-through-waterloo,Travelling Through...,"Travel bookshop and cafe.  <a href=""https://mailchi.mp/197887c50f8f/may-events-at-travelling-through-1614369"">Closed down at the end of May 2019</a>.","131 Lower Marsh, Waterloo, SE1 7AE",,,,51.500375,-0.11380036,https://www.flickr.com/photos/kake_pugh/21158942026/,unknown,unknown,false,false,November 2017,,,,,,,http://londonbooks.tumblr.com/post/119176903061/,,,,,,,,,,,,,,,,,,,,,,,,,,,,,,,,,,,,,,http://www.tiredoflondontiredoflife.com/2015/04/buy-books-at-travelling-through.html,,,,
travis-and-emery-cecil-court,Travis & Emery,"New and secondhand sheet music and music-related books.  Located on <a href=""http://cecilcourt.co.uk/"">Cecil Court</a>, a small lane running between Charing Cross Road and St Martin's Lane with several other specialist/rare/antiquarian bookshops.","17 Cecil Court, Covent Garden, WC2N 4EZ",,http://www.travis-and-emery.com/,020 7240 2129,51.510691,-0.127878,https://www.flickr.com/photos/kake_pugh/30519767242/,true,true,false,true,October 2016,,,,,,,http://londonbooks.tumblr.com/post/120550908661/,,,,,,,,,,,,,,,,,,,,,,,,,,,,,,,,,,,,,,,,,,
treadwells-offstage-books,Treadwell's (and Offstage Books),"""Cultural history and esoteric belief"".  Previously on Tavistock Street (<a href=""http://www.flickr.com/photos/kake_pugh/4448330523/"">photo</a>).","33 Store Street, WC1E 7BS",,http://www.treadwells-london.com/,,51.519928,-0.131181,,unknown,unknown,false,true,,,,,,,,http://londonbooks.tumblr.com/post/138937725391/,,,,,,,,,,,,,,,,,,,,,,,,,,,,,,,,,,,,,,,,,,
trinity-hospice-bookshop,Trinity Hospice Bookshop,,"31 Kensington Church Street, W8 4LL",,,,51.503586,-0.191976,,unknown,unknown,false,true,,,,,,,,,,,,,,,,,,,,,,,,,,,,,,,,,,,,,,,,,,,,,,,,,,
turn-the-page,Turn The Page,"New and secondhand bookshop run by the owner of now-closed <a href=""http://londonbookshops.org/shops/my-back-pages-balham.html"">My Back Pages</a>.  However this itself has also now closed.","575 Garratt Lane, Earlsfield, SW18 4ST",,,020 8605 2290,51.439736,-0.18668135,,true,true,false,false,,,TTPbookshop,,,,,http://londonbooks.tumblr.com/post/114517809091/,,,,,,,,,,,,,,,,,,,,,,,,,,,,,,,,,,,,,,,http://metrolondonguides.wordpress.com/2014/07/04/turn-the-page-bookshop/,,,
two-jays-bookshop-edgware,Two Jays Bookshop,"<a href=""http://web.archive.org/web/20171007083038/http://www.inprint.co.uk/thebookguide/shops/news.php"">According to The Book Guide</a>, Two Jays closed in late 2013 after 37 and a half years in business.","119 High Street, Edgware, HA8 7DB",,,,51.611553,-0.280538,https://flickr.com/photos/kake_pugh/2910907296/,unknown,true,false,false,October 2011,https://london.randomness.org.uk/wiki.cgi?Two_Jays_Bookshop,,,,,,,,,,,,,,,,,,,,,,,,,,,,,,,,,,,,,,,,,,,,,,,,
v-and-a-reading-rooms,V & A Reading Rooms,"Self-described as a ""pop-up bookshop and wine bar"", this has now closed.","8 Exhibition Road, SW7 2HF",,http://web.archive.org/web/20110924185146/http://www.vandareadingrooms.co.uk:80/,,51.494999,-0.173292,,unknown,unknown,false,false,,,,,,,,,http://www.tiredoflondontiredoflife.com/2011/05/browse-victoria-and-albert-reading.html,,,,,,,,,,,,,,,,,,,,,,,,,,,,,,,,,,,,,,,,,
vanilla-black-kennington,Vanilla Black Coffee and Books,"New bookshop and cafe in the old premises of <a href=""kennington-bookshop.html"">the Kennington Bookshop</a>.","306-308 Kennington Road, SE11 4LD",,,,51.486713,-0.111794,,true,true,,true,,,,,,,,,,,,,,,,,,,,,,,,,,,,,,,,,,,,,,,,,http://kenningtonrunoff.com/vanilla-black-coffee-and-books/,,,,,,,,,
victoria-park-books,Victoria Park Books,"Children's bookshop.  <a href=""https://twitter.com/VictoriaParkBks/status/626791395949461505"">Closed down</a> in August 2015.","174 Victoria Park Road, Hackney, E9 7HD",,http://web.archive.org/web/20161018095427/http://www.victoriaparkbooks.co.uk/,,51.538219,-0.044033021,,unknown,unknown,false,false,,,VictoriaParkBks,,,,,http://londonbooks.tumblr.com/post/112720479801/,,,,,,,,,,,,http://hackneycitizen.co.uk/2015/09/08/victoria-park-books-closed-story-habit-launches/,,,,,,,,,,,,,,,,,,,,,,,,,,,,,,
village-bookshop-woodford-green,Village Bookshop (Woodford),,"475 High Road, IG8 0XE",,http://www.thevillagebookshop.co.uk/,,51.610104,0.021715,https://www.flickr.com/photos/kake_pugh/34745142864/,true,false,false,true,June 2017,https://london.randomness.org.uk/wiki.cgi?Village_Bookshop,VillageBookshop,,,,,,,,,,,,,,,,,,,,,,,,,,,,,,,,,,,,,,,,,,,,,,,
village-books-wandsworth-common,Village Books (Wandsworth Common),"Sister bookshop to <a href=""/shops/dulwich-village-books.html"">Dulwich Village Books</a>. Formerly called Beckett's Bookshop.","6 Bellevue Road, SW17 7EG",,https://www.facebook.com/villagebooksdulwich,,51.445621,-0.165932,,true,false,false,true,,,,,,,,,,,,,,,,,,,,,,,,,,,,,,,,,,,,,,,,,,,,,,,,,,
w4-love-books-chiswick,W4 Love Books,"Previously the Chiswick Bookshop (see <a href=""http://londonbooks.tumblr.com/post/144745732481/"">londonbooks.tumblr.com entry</a>), it relaunched with a new name and new management in late 2016.","12 Turnham Green Terrace, Chiswick, W4 1QP",,,,51.493275,-0.2552252,https://www.flickr.com/photos/kake_pugh/31746816374/,true,unknown,false,true,January 2017,,W4LoveBooks,,,,,,,,,,,,,,,,,,,,,,,,,,,,,,,,,,,,,,,,,,,,,,,
w-and-a-houben,W & A Houben,"<a href=""http://www.thebookseller.com/news/lion-unicorn-booksellers-open-alligators-mouth"">Closed for good</a> in August 2014.","2 Church Court, TW9 1JL",,,,51.460533,-0.304152,https://www.flickr.com/photos/kake_pugh/14863995906/,unknown,unknown,false,false,,,,,,,,,,,,,,,,,,,,,,,,,,,,,,,,,,,,,,,,,,,,,,,,,,
walden-books,Walden Books,,"38 Harmood Street, NW1 8DP",,,,51.544292,-0.147028,,unknown,unknown,false,true,,,,,,,,,http://www.tiredoflondontiredoflife.com/2014/05/browse-at-walden-books.html,,,,,,,,,,,,,,,,,,,,,,,,,,,http://bibliophilicblogger.blogspot.com/2009/04/londons-second-hand-book-shops-no-1.html,,,,,,,,,,,,http://www.abebooks.com/walden-books-london/504559/sf,,
watermark-books-kings-cross,Watermark Books,"<a href=""https://www.thebookseller.com/news/watermark-kings-cross-close"">Closed down at the end of July 2015</a>.",King's Cross Station,,,,51.532104,-0.123719,,true,unknown,false,false,,,,,,,,,http://www.tiredoflondontiredoflife.com/2012/06/buy-books-at-watermark.html,,,,,,,,,http://www.thebookseller.com/news/watermark-lands-kings-cross.html,,,,,,,,,,,,,,,,,,,,,,,,,,,,,,,,
waterstones-barnet,Waterstones (Barnet),,"Unit 2, Spires Shopping Centre, Barnet, EN5 5XY",,https://www.waterstones.com/bookshops/barnet,020 8449 8229,51.655226,-0.20241921,https://www.flickr.com/photos/kake_pugh/34738643492/,true,unknown,false,true,May 2017,,WaterstonesBarn,,,,,,,,,,,,,,,,,,,,,,,,,,,,,,,,,,,,,,,,,,,,,,,
waterstones-cabot-place,"Waterstones (Cabot Place, Canary Wharf)",,"Cabot Place East, E14 4QT",,http://www.waterstones.com/,,51.505192,-0.021671779,,true,unknown,false,true,,,,,,,,,,,,,,,,,,,,,,,,,,,,,,,,,,,,,,,,,,,,,,,,,,
waterstones-chesham,Waterstones (Chesham),,"54 The Broadway, High Street, HP5 1EG",,,,51.705853,-0.612434,https://www.flickr.com/photos/kake_pugh/3975852316/,true,unknown,false,true,October 2009,,,,,,,,,,,,,,,,,,,,,,,,,,,,,,,,,,,,,,,,,,,,,,,,,
waterstones-croydon,Waterstones (Croydon),,"Unit 63-64, Trinity Court, Whitgift Centre, CR0 1UX",,http://www.waterstones.com/,,51.3760807665271,-0.0994493523210564,https://www.flickr.com/photos/kake_pugh/9104940879/,true,unknown,false,true,April 2017,,WaterstonesCroy,,,,"http://croydon.randomness.org.uk/wiki.cgi?Waterstones,_63-64_Whitgift_Centre",,,,,,,,,,,,,,,,,,,,,,,,,,,,,,,,,,,,,,,,,,,
waterstones-gower-street,Waterstones (Gower Street),,"82 Gower Street, WC1E 6EQ",,http://www.waterstones.com/waterstonesweb/navigate.do?pPageID=200006,,51.522376,-0.13244131,,true,unknown,false,true,,,,,,,,,,,,,,,,,,,,,,,,,,,,,,,,,,,,,,,,,,,,,,,,,,
waterstones-greenwich,Waterstones (Greenwich),,"51 Greenwich Church Street, SE10 9BL",,http://www.waterstones.com/,,51.481779,-0.0102617,https://www.flickr.com/photos/kake_pugh/9368722246/,true,unknown,false,true,February 2014,,,,,,,,,,,,,,,,,,,,,,,,,,,,,,,,,,,,,,,,,,,,,,,,,
waterstones-jubilee-place,"Waterstones (Jubilee Place, Canary Wharf)","<a href=""https://twitter.com/waterstonesjp/status/1009865750864187393"">Closed down for good</a> in July 2018.","45 Bank Street, E14 5NY",,http://www.waterstones.com/,,51.503029,-0.018589586,,true,unknown,false,false,,,,,,,,,,,,,,,,,,,,,,,,,,,,,,,,,,,,,,,,,,,,,,,,,,
waterstones-kensington-high-street,Waterstones (Kensington High Street),,"193 Kensington High Street, W8 6SH",,http://www.waterstones.com/,,51.49995,-0.1952257,https://www.flickr.com/photos/kake_pugh/38044289834/,true,unknown,false,true,November 2017,,,,,,,,,,,,,,,,,,,,,,,,,,,,,,,,,,,,,,,,,,,,,,,,,
waterstones-london-wall,Waterstones (London Wall),,"54-55 London Wall, EC2M 5RA",,http://www.waterstones.com/,,51.516975,-0.087461,https://www.flickr.com/photos/kake_pugh/3749233569/,unknown,unknown,false,true,July 2009,,,,,,,,,,,,,,,,,,,,,,,,,,,,,,,,,,,,,,,,,,,,,,,,,
waterstones-notting-hill,Waterstones (Notting Hill),The entrance is actually on Kensington Church Street.,"39-41 Notting Hill Gate, W11 3JQ",,http://www.waterstones.com/,,51.509003,-0.19542763,https://www.flickr.com/photos/kake_pugh/9892218735/,true,unknown,false,true,March 2015,,,,,,,,,,,,,,,,,,,,,,,,,,,,,,,,,,,,,,,,,,,,,,,,,
waterstones-piccadilly,Waterstones (Piccadilly),,"203-206 Piccadilly, W1J 9LE",,http://www.waterstones.com/waterstonesweb/navigate.do?pPageID=200003,,51.509197,-0.136117,https://www.flickr.com/photos/kake_pugh/3687662346/,true,unknown,false,true,July 2009,,,,,,,,,,,,,,,,,,,,,,,,,,,,,,,,,,,,,,,,,,,,,,,,,
waterstones-richmond,Waterstones (Richmond),,"2-6 Hill Street, Richmond, TW9 1TN",,https://www.waterstones.com/bookshops/richmond,020 8332 1600,51.459469,-0.30613044,https://www.flickr.com/photos/kake_pugh/33814040174/,,,,true,May 2017,,WaterstonesRich,,,,,,,,,,,,,,,,,,,,,,,,,,,,,,,,,,,,,,,,,,,,,,,
waterstones-romford,Waterstones (Romford),,"Lockwood Walk, Liberty Shopping Centre, Romford, RM1 3RJ",,http://www.waterstones.com/,01708 747482,51.577211,0.18341522,https://www.flickr.com/photos/kake_pugh/11119298945/,true,unknown,false,true,November 2013,,,,,,,,,,,,,,,,,,,,,,,,,,,,,,,,,,,,,,,,,,,,,,,,,
waterstones-twickenham,Waterstones (Twickenham),,"19 King Street, Twickenham, TW1 3SD",,http://www.waterstones.com/,020 8744 2807,51.445888,-0.32872041,https://www.flickr.com/photos/kake_pugh/37014226812/,true,unknown,false,true,September 2017,,TwickenhamWat,,,,,,,,,,,,,,,,,,,,,,,,,,,,,,,,,,,,,,,,,,,,,,,
watkins-books-cecil-court,Watkins Books,"Esoteric bookshop on <a href=""http://cecilcourt.co.uk/"">Cecil Court</a>, a small lane running between Charing Cross Road and St Martin's Lane with several other specialist/rare/antiquarian bookshops.","19-21 Cecil Court, Covent Garden, WC2N 4EZ",,http://www.watkinsbooks.com/,020 7836 2182,51.51069,-0.127976,https://www.flickr.com/photos/kake_pugh/30004563224/,true,true,false,true,October 2016,,,,,,,http://londonbooks.tumblr.com/post/133260173646/,,,,,,,,,,,,,,,,,,,,,,,,,,,,,,,,,,,,,,,,,,
wellington-arch-bookshop,Wellington Arch Bookshop,,"Wellington Arch, Hyde Park Corner",,,,51.502545,-0.15079835,,true,unknown,false,true,,,,,,,,,,,,,,,,,,,,,,,,,,,,,,,,,,,,,,,,,,,,,,,,,http://www.ianvisits.co.uk/blog/2012/05/10/a-bookshop-has-opened-inside-hyde-park-corners-wellington-arch/,
wellspring-bookshop,Wellspring Bookshop,"Closed in June 2015, but continued to trade online.","5 New Oxford Street, WC1A 1BA",,http://www.wellspringbookshop.co.uk/,,51.517178,-0.123674,https://www.flickr.com/photos/kake_pugh/6447218629/,unknown,unknown,false,false,February 2013,,,,,,,,,,,,,,,,,,,,,,,,,,,,,,,,,,,,,,,,,,,,,,,,,
west-end-lane-books,West End Lane Books,,"277 West End Lane, NW6 1QS",,http://welbooks.co.uk/the_shop/,,51.550564,-0.191724,https://www.flickr.com/photos/kake_pugh/15202876157/,unknown,unknown,false,true,September 2014,,WELBooks,,,http://londonist.com/2009/03/biblio-text_west_end_lane_books.php,,http://londonbooks.tumblr.com/post/118303565181/,http://www.tiredoflondontiredoflife.com/2011/09/buy-books-at-west-end-lane-books.html,,,,,,,,,,,,,,,,,,,,,,,,,,,,,,,,,,,,,,,,,
whsmiths-croydon,WHSmiths (Croydon),,"34 North End, CR0 1UB",,http://www.whsmith.co.uk/,,51.3747698985094,-0.100667160692658,https://www.flickr.com/photos/kake_pugh/7147931631/,true,false,false,true,April 2017,,,,,,"http://croydon.randomness.org.uk/wiki.cgi?WHSmith,_34_North_End",,,,,,,,,,,,,,,,,,,,,,,,,,,,,,,,,,,,,,,,,,,
whsmith-victoria-station,WHSmith (Victoria Station),,"Victoria Station, SW1V 1JT",,http://www.whsmith.co.uk/,,51.495747,-0.14475308,https://www.flickr.com/photos/kake_pugh/8277876635/,true,false,false,true,December 2012,,,,,,,,,,,,,,,,,,,,,,,,,,,,,,,,,,,,,,,,,,,,,,,,,
wildy-and-sons,Wildy & Sons Ltd,Law books.,"Lincoln's Inn Archway, Carey Street, WC2A 2JD",,http://www.wildy.com/,,51.515179,-0.112824,https://www.flickr.com/photos/rjw1/13971393041/,true,unknown,false,true,October 2013,,,,,,,http://londonbooks.tumblr.com/post/149262544971/,,,,,,,,,,,,,,,,,,,,,,,,,,,,,,,,,,,,,,,,,,
willesden-bookshop,Willesden Bookshop,"Multicultural children's books.  Previously at the Willesden Green Library Centre, 95 High Road, NW10 4QU.","c/o 9 Highgate High Street, N6 5JR",,http://willesdenbookshop.co.uk/,,51.570242,-0.146111,,true,unknown,false,true,,,,,,,,,http://www.tiredoflondontiredoflife.com/2011/12/buy-books-at-willesden-bookshop.html,,,,,,,,,,,,,,,,,,,,,,,,,,,,,,,,,,,,,,,,,
wimbledon-books-and-music,Wimbledon Books,Formerly known as Wimbledon Books and Music.,"40 High Street, SW19 5AU",,http://www.wimbledonbooks.co.uk/,,51.425385,-0.22037,https://www.flickr.com/photos/rjw1/14194802098/,true,false,false,true,June 2014,,WimbledonBooks,,,,,http://londonbooks.tumblr.com/post/137472359991/,,,,,,,,,,,,,,http://www.yelp.co.uk/biz/wimbledon-books-and-music-london,,,,,,,,,,,,,,,,,,,,,,,,,,,,
wood-street-bookshop,Wood Street Non-Fiction Secondhand Book Shop,Closed down by March 2018.,"118 Wood Street, Walthamstow, E17 3HX",,,,51.58786,-0.003969267,,unknown,true,false,false,,,,,,,,,,,,,,,,,,,,,,,,,,,,,,,,,,,,,,,,,,,,,,,,,,
woolfson-and-tay-bankside,Woolfson & Tay,"Closed down in January 2014.  It was previously at Bermondsey Square (<a href=""http://www.flickr.com/photos/rjw1/8360423241/"">photo</a>), but relocated to Bankside in April 2013.","39 Bear Lane, Bankside, London, SE1 0UH",,http://woolfsonandtaybookshop.weebly.com/,,51.504893,-0.10195264,https://www.flickr.com/photos/kake_pugh/9260633677/,true,unknown,false,false,,,woolfsonandtay,,,http://londonist.com/2010/09/biblio-text_woolfson_tay.php,,,,,,,,,,,,,,,,,,,,http://diamondgeezer.blogspot.co.uk/2013/04/woolfson-tay.html,http://www.london-se1.co.uk/news/view/4799,,,,,,,,,,,,,,,,,,,,,,,
word-new-cross,The Word,Academic bookshop which mainly stocks books on the reading lists of nearby Goldsmiths College.  It opened in September 2016.,"314 New Cross Road, SE14 6AF",,http://www.wordbookshop.co.uk/,020 8355 9378,51.475538,-0.03713344,https://www.flickr.com/photos/kake_pugh/33493636994/,true,,false,true,September 2019,,,,,,,http://londonbooks.tumblr.com/post/153471767356/the-word-se14-very-pleased-to-report-on-this,,,,,,,,,,,,,,,,,,,,,,,,,,,,,,,,,,,,,,,,,,http://brockleycentral.blogspot.com/2016/08/coming-soon-word.html
works-barnet,The Works (Barnet),Discount books.,"Unit 9, Spires Shopping Centre, Barnet, EN5 5XY",,https://www.theworks.co.uk/store/0653_barnet,020 8441 1753,51.655419,-0.20326678,https://www.flickr.com/photos/kake_pugh/34514773960/,unknown,unknown,false,true,May 2017,,,,,,,,,,,,,,,,,,,,,,,,,,,,,,,,,,,,,,,,,,,,,,,,,
works-croydon,"The Works (Whitgift Centre, Croydon)",Discount books.,"Unit 1105, Upper Mall, Whitgift Centre, Croydon, CR0 1UY",,https://www.theworks.co.uk/store/0309_croydon,,51.3762967235963,-0.10057523338028,https://www.flickr.com/photos/kake_pugh/9107759359/,unknown,unknown,false,true,April 2017,,,,,,"http://croydon.randomness.org.uk/wiki.cgi?The_Works,_1105_Whitgift_Centre",,,,,,,,,,,,,,,,,,,,,,,,,,,,,,,,,,,,,,,,,,,
works-croydon-north-end,"The Works (North End, Croydon)",Discount books.,"145-147 North End, Croydon, CR0 1TN",,https://www.theworks.co.uk/store/1058_croydon,,51.377547,-0.1023889,https://www.flickr.com/photos/kake_pugh/41992827304/,,,,true,June 2018,,,,,,"http://croydon.randomness.org.uk/wiki.cgi?The_Works,_145-147_North_End",,,,,,,,,,,,,,,,,,,,,,,,,,,,,,,,,,,,,,,,,,,
works-twickenham,The Works (Twickenham),Discount books.,"1a King Street, Twickenham, TW1 3SD",,https://www.theworks.co.uk/store/0908_twickenham,020 8744 0119,51.446271,-0.32810886,https://www.flickr.com/photos/kake_pugh/36788466180/,unknown,unknown,false,true,September 2017,,,,,,,,,,,,,,,,,,,,,,,,,,,,,,,,,,,,,,,,,,,,,,,,,
worlds-end-bookshop-chelsea,World's End Bookshop,,"357 Kings Road, SW3 5ES",,,020 7352 9376,51.483883,-0.176682,https://www.flickr.com/photos/kake_pugh/15714748716/,unknown,unknown,false,true,October 2014,,,,,,,,,,,,,,,,,,,,,,,,,,,,,,,,,,,,,,,,,,,,,,,,,
amwell-book-company,Amwell Book Company,"Previously at 53 Amwell Street, EC1R 1UR, this bookshop <a href=""http://web.archive.org/web/20111004014317/http://www.islingtontribune.com:80/news/2011/sep/amwell-bookshop-loses-battle-survive-hectic-age-online-browsers"">closed to drop-in visitors</a> at the beginning of October 2011 and now trades online only.","53 Amwell Street, EC1R 1UR",,http://www.amwellbookcompany.co.uk/,,51.529465,-0.110614,,,,,false,,,,,,,,,,,,,,,,,,,,,,,,,,,,,,,,,,,,,,,,,,,,,,,,,,
eastcote-bookshop,Eastcote Bookshop,Now closed.,156-160 Field End Road HA5 1RH,,,,51.578201,-0.399499,https://www.flickr.com/photos/kake_pugh/3532427672/,,,,false,,https://london.randomness.org.uk/wiki.cgi?Eastcote_Bookshop,,,,,,,,,,,,,,,,,,,,,,,,,,,,,,,,,,,,,,,,,,,,,,,,
kilburn-bookshop,Kilburn Bookshop,"<a href=""http://www.bookbrunch.co.uk/index.php?option=com_content&amp;view=article&amp;id=4800:after-30-years-the-kilburn-bookshop-is-forced-to-close&amp;catid=927:bookselling&amp;Itemid=117"">Closed at the end of March 2010</a>.","8 Kilburn Bridge, NW6 6HT",,,,51.537113,-0.192862,,,,,false,,,,,,,,,,,,,,,,,,,,,,,,,,,,,,,,,,,,,,,,,,,,,,,,,,
prosperos-books,Prospero's Books,"<a href=""http://web.archive.org/web/20110107015916/http://www.thebookseller.com:80/news/141121-page.html"">Closed for good</a> in December 2010.","32 The Broadway, N8 9SU.",,,,51.579285,-0.123425,,,,,false,,,,,,,,,,,,,,,,,,,,,,,,,,,,,,,,,,,,,,,,,,,,,,,,,,
tree-of-life-tottenham,Tree of Life Books,"<a href=""http://www.brucecastlenews.com/2012/09/tree-of-life-books-tottenham-high-road.html"">Opened in late 2012</a>, but now closed again.","677 Tottenham High Road, N17 8AD",,,,51.600373,-0.068020418,,,,,false,,,,,,,,,,,,,,,,,,,,,,,,,,,,,,,,,,,,,,,,,,,,,,,,,,
new-leaf-bookshop-pinner,New Leaf Bookshop,Incorporating The Children's Bookshop.  Closed down by August 2015.,"1 Red Lion Parade, HA5 3JD",,,,51.594322,-0.38253585,,true,unknown,false,false,,,,,,,,,,,,,,,,,,,,,,,,,,,,,,,,,,,,,,,,,,,,,,,,,,
